{
  "type": "FeatureCollection",
  "features": [
    {
      "type": "Feature",
      "properties": {
        "id": "masjid_shaikhain",
        "name": "Masjid Shaikhain",
        "arabic": "مسجد الشيخين",
        "desc": "Where the Prophet (ﷺ) donned armor before the Battle of Uhud.",
        "category": "mosque",
        "color": "#2E7D32",
        "height": 14,
        "base_height": 0
      },
      "geometry": {
        "type": "Polygon",
        "coordinates": [
          [
            [
              39.608765,
              24.489389
            ],
            [
              39.608776,
              24.489472
            ],
            [
              39.608915,
              24.489463
            ],
            [
              39.60891,
              24.489365
            ],
            [
              39.608765,
              24.489389
            ]
          ]
        ]
      }
    },
    {
      "type": "Feature",
      "properties": {
        "id": "masjid_mustarahah",
        "name": "Masjid Mustarah",
        "arabic": "مسجد المستراح",
        "desc": "Where the Prophet (ﷺ) rested after the Battle of Uhud.",
        "category": "mosque",
        "color": "#2E7D32",
        "height": 16,
        "base_height": 0
      },
      "geometry": {
        "type": "Polygon",
        "coordinates": [
          [
            [
              39.609806,
              24.491728
            ],
            [
              39.60965,
              24.491737
            ],
            [
              39.609656,
              24.491864
            ],
            [
              39.60964,
              24.491869
            ],
            [
              39.609645,
              24.491918
            ],
            [
              39.609672,
              24.491913
            ],
            [
              39.609693,
              24.491982
            ],
            [
              39.609774,
              24.491977
            ],
            [
              39.609811,
              24.491908
            ],
            [
              39.609849,
              24.491899
            ],
            [
              39.609817,
              24.491864
            ],
            [
              39.609806,
              24.491728
            ]
          ]
        ]
      }
    },
    {
      "type": "Feature",
      "properties": {
        "id": "kaaba",
        "name": "The Holy Ka'bah",
        "arabic": "الكعبة المشرفة",
        "desc": "The House of Allah, the Qiblah for all Muslims.",
        "category": "sacred",
        "color": "#111111",
        "height": 15,
        "base_height": 0
      },
      "geometry": {
        "type": "Polygon",
        "coordinates": [
          [
            [
              39.8261095,
              21.4225371
            ],
            [
              39.8261922,
              21.4225861
            ],
            [
              39.8262411,
              21.4225173
            ],
            [
              39.8262546,
              21.4224985
            ],
            [
              39.8261735,
              21.4224468
            ],
            [
              39.8261095,
              21.4225371
            ]
          ]
        ]
      }
    },
    {
      "type": "Feature",
      "properties": {
        "id": "masjid_nabawi",
        "name": "Al-Masjid an-Nabawi",
        "arabic": "المسجد النبوي",
        "desc": "The Prophet's Mosque in Madinah.",
        "category": "mosque",
        "color": "#F8F8F4",
        "height": 14,
        "base_height": 0
      },
      "geometry": {
        "type": "Polygon",
        "coordinates": [
          [
            [
              39.612724,
              24.4699608
            ],
            [
              39.6125824,
              24.4699602
            ],
            [
              39.6125825,
              24.4699408
            ],
            [
              39.6123761,
              24.46994
            ],
            [
              39.6121526,
              24.4699391
            ],
            [
              39.6121525,
              24.4699588
            ],
            [
              39.612055,
              24.4699584
            ],
            [
              39.6120554,
              24.4698664
            ],
            [
              39.6117534,
              24.4698652
            ],
            [
              39.6114183,
              24.469864
            ],
            [
              39.6114178,
              24.469963
            ],
            [
              39.6113419,
              24.4699627
            ],
            [
              39.611342,
              24.4699254
            ],
            [
              39.6111565,
              24.4699247
            ],
            [
              39.6109522,
              24.4699238
            ],
            [
              39.610952,
              24.4699531
            ],
            [
              39.6108525,
              24.4699526
            ],
            [
              39.610853,
              24.4698689
            ],
            [
              39.6108084,
              24.4698687
            ],
            [
              39.6108086,
              24.469839
            ],
            [
              39.6105382,
              24.4698374
            ],
            [
              39.6102546,
              24.4698358
            ],
            [
              39.610254,
              24.4699178
            ],
            [
              39.6103018,
              24.4699181
            ],
            [
              39.6103015,
              24.4699565
            ],
            [
              39.6101377,
              24.4699555
            ],
            [
              39.6101379,
              24.4699267
            ],
            [
              39.610081,
              24.4699263
            ],
            [
              39.6099172,
              24.4699252
            ],
            [
              39.609733,
              24.4699239
            ],
            [
              39.6097328,
              24.4699497
            ],
            [
              39.6095706,
              24.4699486
            ],
            [
              39.609571,
              24.4698972
            ],
            [
              39.6096114,
              24.4698975
            ],
            [
              39.6096118,
              24.4698562
            ],
            [
              39.6092603,
              24.4698538
            ],
            [
              39.6092609,
              24.4697873
            ],
            [
              39.6091329,
              24.4697864
            ],
            [
              39.6091341,
              24.4696363
            ],
            [
              39.6091611,
              24.4696365
            ],
            [
              39.6091622,
              24.4694812
            ],
            [
              39.6091631,
              24.4693545
            ],
            [
              39.6091633,
              24.4693261
            ],
            [
              39.6091238,
              24.4693259
            ],
            [
              39.609125,
              24.4691374
            ],
            [
              39.6092201,
              24.4691379
            ],
            [
              39.6092207,
              24.4690278
            ],
            [
              39.6091139,
              24.4690273
            ],
            [
              39.6091143,
              24.4689544
            ],
            [
              39.6091146,
              24.4688963
            ],
            [
              39.6091154,
              24.4687551
            ],
            [
              39.6092313,
              24.4687556
            ],
            [
              39.6092321,
              24.4686077
            ],
            [
              39.6091114,
              24.4686072
            ],
            [
              39.6091123,
              24.4684289
            ],
            [
              39.6091511,
              24.468429
            ],
            [
              39.6091518,
              24.468265
            ],
            [
              39.6091526,
              24.4680701
            ],
            [
              39.6091156,
              24.46807
            ],
            [
              39.6091162,
              24.4678974
            ],
            [
              39.6092304,
              24.4678977
            ],
            [
              39.6092305,
              24.4678461
            ],
            [
              39.6097237,
              24.4678472
            ],
            [
              39.6097239,
              24.4677547
            ],
            [
              39.6099202,
              24.4677551
            ],
            [
              39.6101036,
              24.4677555
            ],
            [
              39.6101033,
              24.4678589
            ],
            [
              39.6105603,
              24.4678598
            ],
            [
              39.6106619,
              24.46786
            ],
            [
              39.6106622,
              24.4677486
            ],
            [
              39.6106626,
              24.4675676
            ],
            [
              39.6106629,
              24.4674402
            ],
            [
              39.6106632,
              24.4673319
            ],
            [
              39.6111487,
              24.4673329
            ],
            [
              39.6115993,
              24.4673338
            ],
            [
              39.611599,
              24.4674505
            ],
            [
              39.6115983,
              24.4677396
            ],
            [
              39.6115982,
              24.467798
            ],
            [
              39.6115451,
              24.4677979
            ],
            [
              39.6115451,
              24.4678205
            ],
            [
              39.611545,
              24.4678434
            ],
            [
              39.6117889,
              24.4678439
            ],
            [
              39.6123063,
              24.467845
            ],
            [
              39.6123065,
              24.4677684
            ],
            [
              39.6124748,
              24.4677688
            ],
            [
              39.6126507,
              24.4677692
            ],
            [
              39.6126506,
              24.4678358
            ],
            [
              39.613024,
              24.4678367
            ],
            [
              39.6130241,
              24.4678117
            ],
            [
              39.6131134,
              24.4678119
            ],
            [
              39.6131126,
              24.4680299
            ],
            [
              39.6132254,
              24.4680303
            ],
            [
              39.6132251,
              24.4680976
            ],
            [
              39.6131988,
              24.4680975
            ],
            [
              39.613198,
              24.4682758
            ],
            [
              39.6131972,
              24.46846
            ],
            [
              39.6132323,
              24.4684601
            ],
            [
              39.6132318,
              24.4685726
            ],
            [
              39.6130929,
              24.468572
            ],
            [
              39.613092,
              24.468753
            ],
            [
              39.613206,
              24.4687535
            ],
            [
              39.6132054,
              24.4688724
            ],
            [
              39.6132048,
              24.4689897
            ],
            [
              39.6130898,
              24.4689892
            ],
            [
              39.6130889,
              24.469147
            ],
            [
              39.6131941,
              24.4691475
            ],
            [
              39.6131937,
              24.4692234
            ],
            [
              39.6131633,
              24.4692232
            ],
            [
              39.613162,
              24.4694554
            ],
            [
              39.6131609,
              24.4696472
            ],
            [
              39.6131852,
              24.4696473
            ],
            [
              39.6131847,
              24.4697479
            ],
            [
              39.6131209,
              24.4697476
            ],
            [
              39.6131207,
              24.4697909
            ],
            [
              39.6130524,
              24.4697906
            ],
            [
              39.6130519,
              24.4698704
            ],
            [
              39.6127244,
              24.4698689
            ],
            [
              39.612724,
              24.4699608
            ]
          ]
        ]
      }
    },
    {
      "type": "Feature",
      "properties": {
        "id": "masjid_haram",
        "name": "Masjid al-Haram",
        "arabic": "المسجد الحرام",
        "desc": "The Great Mosque of Mecca.",
        "category": "mosque",
        "color": "#F8F8F4",
        "height": 18,
        "base_height": 0
      },
      "geometry": {
        "type": "MultiPolygon",
        "coordinates": [
          [
            [
              [
                39.8246088,
                21.4230294
              ],
              [
                39.8246059,
                21.4230976
              ],
              [
                39.8246067,
                21.4231626
              ],
              [
                39.8246771,
                21.4232614
              ],
              [
                39.824743,
                21.4233538
              ],
              [
                39.8248611,
                21.4235195
              ],
              [
                39.8249119,
                21.4235726
              ],
              [
                39.824955,
                21.4236258
              ],
              [
                39.8250287,
                21.4236708
              ],
              [
                39.8250905,
                21.4237076
              ],
              [
                39.8252692,
                21.4238175
              ],
              [
                39.82543,
                21.4239142
              ],
              [
                39.8255736,
                21.4240032
              ],
              [
                39.8256464,
                21.4240235
              ],
              [
                39.8257102,
                21.4240413
              ],
              [
                39.8259286,
                21.4240786
              ],
              [
                39.8261653,
                21.4241192
              ],
              [
                39.8262311,
                21.4240857
              ],
              [
                39.826293,
                21.4240541
              ],
              [
                39.8264341,
                21.4240304
              ],
              [
                39.8265147,
                21.4240151
              ],
              [
                39.8268506,
                21.4239448
              ],
              [
                39.8269228,
                21.4239294
              ],
              [
                39.8269325,
                21.4238683
              ],
              [
                39.8270436,
                21.4238781
              ],
              [
                39.8246088,
                21.4230294
              ]
            ]
          ],
          [
            [
              [
                39.82454,
                21.4225684
              ],
              [
                39.8245553,
                21.4226008
              ],
              [
                39.8245268,
                21.4226421
              ],
              [
                39.8245547,
                21.422771
              ],
              [
                39.8245696,
                21.4228378
              ],
              [
                39.8245822,
                21.4229024
              ],
              [
                39.8246088,
                21.4230294
              ],
              [
                39.82454,
                21.4225684
              ]
            ]
          ],
          [
            [
              [
                39.8243157,
                21.4224317
              ],
              [
                39.8243476,
                21.4224512
              ],
              [
                39.8244473,
                21.4225128
              ],
              [
                39.8245256,
                21.4225597
              ],
              [
                39.82454,
                21.4225684
              ],
              [
                39.8243157,
                21.4224317
              ]
            ]
          ],
          [
            [
              [
                39.8242618,
                21.4223988
              ],
              [
                39.8242403,
                21.4224319
              ],
              [
                39.8241877,
                21.4223978
              ],
              [
                39.8241523,
                21.4223939
              ],
              [
                39.8241269,
                21.422429
              ],
              [
                39.8241224,
                21.4224354
              ],
              [
                39.8240967,
                21.4224709
              ],
              [
                39.8241023,
                21.4224949
              ],
              [
                39.8242617,
                21.4225927
              ],
              [
                39.824286,
                21.422587
              ],
              [
                39.8243463,
                21.4225163
              ],
              [
                39.8243426,
                21.422498
              ],
              [
                39.8242918,
                21.4224652
              ],
              [
                39.8243157,
                21.4224317
              ],
              [
                39.8242618,
                21.4223988
              ]
            ]
          ],
          [
            [
              [
                39.8239977,
                21.4214451
              ],
              [
                39.8239805,
                21.421468
              ],
              [
                39.8239877,
                21.4215062
              ],
              [
                39.8239979,
                21.4215606
              ],
              [
                39.8239744,
                21.4215934
              ],
              [
                39.8239611,
                21.4216101
              ],
              [
                39.8239322,
                21.4216497
              ],
              [
                39.8239039,
                21.421688
              ],
              [
                39.8238913,
                21.4217051
              ],
              [
                39.823857,
                21.4217517
              ],
              [
                39.8238782,
                21.421845
              ],
              [
                39.8238909,
                21.421901
              ],
              [
                39.823929,
                21.4220685
              ],
              [
                39.8239401,
                21.4221171
              ],
              [
                39.8239627,
                21.4222165
              ],
              [
                39.8240354,
                21.4222608
              ],
              [
                39.824176,
                21.4223466
              ],
              [
                39.8242618,
                21.4223988
              ],
              [
                39.8239977,
                21.4214451
              ]
            ]
          ],
          [
            [
              [
                39.8239724,
                21.4213361
              ],
              [
                39.8239694,
                21.4213366
              ],
              [
                39.8239411,
                21.4213746
              ],
              [
                39.82395,
                21.42142
              ],
              [
                39.8239908,
                21.4214463
              ],
              [
                39.8239977,
                21.4214451
              ],
              [
                39.8239724,
                21.4213361
              ]
            ]
          ],
          [
            [
              [
                39.8241228,
                21.4211241
              ],
              [
                39.8241129,
                21.4211387
              ],
              [
                39.8240461,
                21.421232
              ],
              [
                39.8239817,
                21.421324
              ],
              [
                39.8239724,
                21.4213361
              ],
              [
                39.8241228,
                21.4211241
              ]
            ]
          ],
          [
            [
              [
                39.8242401,
                21.4211013
              ],
              [
                39.8242395,
                21.421098
              ],
              [
                39.8241987,
                21.4210717
              ],
              [
                39.8241499,
                21.4210799
              ],
              [
                39.8241216,
                21.4211179
              ],
              [
                39.8241228,
                21.4211241
              ],
              [
                39.8242401,
                21.4211013
              ]
            ]
          ],
          [
            [
              [
                39.8252802,
                21.4209392
              ],
              [
                39.8252443,
                21.4209155
              ],
              [
                39.8252202,
                21.4209022
              ],
              [
                39.8250574,
                21.4208019
              ],
              [
                39.8249809,
                21.4207548
              ],
              [
                39.8248784,
                21.420775
              ],
              [
                39.8248296,
                21.4207846
              ],
              [
                39.8246388,
                21.4208221
              ],
              [
                39.8245926,
                21.4208312
              ],
              [
                39.824485,
                21.4208524
              ],
              [
                39.8244405,
                21.4209167
              ],
              [
                39.8244105,
                21.4209602
              ],
              [
                39.8243931,
                21.4209865
              ],
              [
                39.8243794,
                21.4210054
              ],
              [
                39.8243683,
                21.4210223
              ],
              [
                39.8243437,
                21.4210566
              ],
              [
                39.8243,
                21.4210652
              ],
              [
                39.8242588,
                21.4210733
              ],
              [
                39.8242401,
                21.4211013
              ],
              [
                39.8252802,
                21.4209392
              ]
            ]
          ],
          [
            [
              [
                39.825337,
                21.4209742
              ],
              [
                39.8253649,
                21.4209357
              ],
              [
                39.8254126,
                21.4209651
              ],
              [
                39.8254388,
                21.4209582
              ],
              [
                39.8254624,
                21.4209277
              ],
              [
                39.8254851,
                21.4208961
              ],
              [
                39.8254801,
                21.4208656
              ],
              [
                39.825316,
                21.4207671
              ],
              [
                39.8252862,
                21.4207741
              ],
              [
                39.8252628,
                21.4208086
              ],
              [
                39.8252423,
                21.4208399
              ],
              [
                39.8252452,
                21.4208619
              ],
              [
                39.8253068,
                21.4208999
              ],
              [
                39.8252802,
                21.4209392
              ],
              [
                39.825337,
                21.4209742
              ]
            ]
          ],
          [
            [
              [
                39.8255881,
                21.4211226
              ],
              [
                39.8255488,
                21.4210994
              ],
              [
                39.8253842,
                21.4210042
              ],
              [
                39.8253606,
                21.4209891
              ],
              [
                39.825337,
                21.4209742
              ],
              [
                39.8255881,
                21.4211226
              ]
            ]
          ],
          [
            [
              [
                39.8256598,
                21.4210895
              ],
              [
                39.8256525,
                21.4210907
              ],
              [
                39.8256411,
                21.421106
              ],
              [
                39.8256324,
                21.4211079
              ],
              [
                39.8256336,
                21.4211161
              ],
              [
                39.8256242,
                21.4211287
              ],
              [
                39.8256598,
                21.4210895
              ]
            ]
          ],
          [
            [
              [
                39.8260372,
                21.4210187
              ],
              [
                39.8260356,
                21.4210104
              ],
              [
                39.8259054,
                21.4210322
              ],
              [
                39.8258406,
                21.4210447
              ],
              [
                39.8257668,
                21.4210589
              ],
              [
                39.8256589,
                21.421082
              ],
              [
                39.8256598,
                21.4210895
              ],
              [
                39.8260372,
                21.4210187
              ]
            ]
          ],
          [
            [
              [
                39.8260883,
                21.4210547
              ],
              [
                39.8260861,
                21.4210436
              ],
              [
                39.8260743,
                21.421036
              ],
              [
                39.8260724,
                21.4210257
              ],
              [
                39.8260607,
                21.4210272
              ],
              [
                39.8260453,
                21.4210173
              ],
              [
                39.8260372,
                21.4210187
              ],
              [
                39.8260883,
                21.4210547
              ]
            ]
          ],
          [
            [
              [
                39.8271922,
                21.4215886
              ],
              [
                39.8271716,
                21.4215559
              ],
              [
                39.8270342,
                21.4214729
              ],
              [
                39.8270606,
                21.4214346
              ],
              [
                39.8269089,
                21.4213405
              ],
              [
                39.8268532,
                21.4213059
              ],
              [
                39.8268098,
                21.421279
              ],
              [
                39.8266591,
                21.4211855
              ],
              [
                39.8266416,
                21.4212097
              ],
              [
                39.8266054,
                21.4211869
              ],
              [
                39.8265626,
                21.4211601
              ],
              [
                39.8265724,
                21.421095
              ],
              [
                39.8264899,
                21.4210802
              ],
              [
                39.8264679,
                21.4210765
              ],
              [
                39.8264469,
                21.4210726
              ],
              [
                39.8264059,
                21.4210652
              ],
              [
                39.8263676,
                21.4210584
              ],
              [
                39.826346,
                21.4210545
              ],
              [
                39.8263257,
                21.4210508
              ],
              [
                39.8262726,
                21.4210413
              ],
              [
                39.8262096,
                21.4210301
              ],
              [
                39.8262026,
                21.421063
              ],
              [
                39.8261276,
                21.4210477
              ],
              [
                39.8260883,
                21.4210547
              ],
              [
                39.8271922,
                21.4215886
              ]
            ]
          ],
          [
            [
              [
                39.8273095,
                21.4216128
              ],
              [
                39.827312,
                21.4215959
              ],
              [
                39.827282,
                21.4215591
              ],
              [
                39.8272329,
                21.4215528
              ],
              [
                39.8271933,
                21.4215808
              ],
              [
                39.8271922,
                21.4215886
              ],
              [
                39.8273095,
                21.4216128
              ]
            ]
          ],
          [
            [
              [
                39.8273881,
                21.4253089
              ],
              [
                39.8273948,
                21.4252651
              ],
              [
                39.8273985,
                21.4252384
              ],
              [
                39.8274041,
                21.4251852
              ],
              [
                39.8274078,
                21.4251525
              ],
              [
                39.8274533,
                21.4251555
              ],
              [
                39.8274977,
                21.4248196
              ],
              [
                39.8274685,
                21.4248181
              ],
              [
                39.8274504,
                21.4248237
              ],
              [
                39.8274063,
                21.4248184
              ],
              [
                39.8273419,
                21.4248107
              ],
              [
                39.827352,
                21.4247253
              ],
              [
                39.8273569,
                21.4246888
              ],
              [
                39.8273694,
                21.424595
              ],
              [
                39.8273808,
                21.4245096
              ],
              [
                39.827387,
                21.4244632
              ],
              [
                39.8273918,
                21.4244279
              ],
              [
                39.8274053,
                21.4243265
              ],
              [
                39.8274545,
                21.4243319
              ],
              [
                39.8274813,
                21.424146
              ],
              [
                39.8274905,
                21.4240699
              ],
              [
                39.8275049,
                21.4239893
              ],
              [
                39.8275286,
                21.4237619
              ],
              [
                39.8275596,
                21.4235226
              ],
              [
                39.8275132,
                21.4235203
              ],
              [
                39.8275662,
                21.4230322
              ],
              [
                39.8275718,
                21.4230072
              ],
              [
                39.8275792,
                21.4229524
              ],
              [
                39.827586,
                21.4229052
              ],
              [
                39.8275973,
                21.4228145
              ],
              [
                39.827751,
                21.4228315
              ],
              [
                39.8277915,
                21.4225025
              ],
              [
                39.8277405,
                21.4224983
              ],
              [
                39.8276389,
                21.42249
              ],
              [
                39.8276509,
                21.4224038
              ],
              [
                39.8276612,
                21.4223494
              ],
              [
                39.8276625,
                21.4223356
              ],
              [
                39.8276781,
                21.4222008
              ],
              [
                39.8276938,
                21.422095
              ],
              [
                39.8277069,
                21.4219752
              ],
              [
                39.8276558,
                21.4219729
              ],
              [
                39.8276581,
                21.4219351
              ],
              [
                39.8276707,
                21.4218383
              ],
              [
                39.8276602,
                21.4217507
              ],
              [
                39.8275973,
                21.4216611
              ],
              [
                39.8275161,
                21.4216199
              ],
              [
                39.8274067,
                21.421595
              ],
              [
                39.8273095,
                21.4216128
              ],
              [
                39.8273881,
                21.4253089
              ]
            ]
          ],
          [
            [
              [
                39.8270436,
                21.4238781
              ],
              [
                39.8270314,
                21.4239614
              ],
              [
                39.8268785,
                21.4239503
              ],
              [
                39.826837,
                21.424264
              ],
              [
                39.8269801,
                21.4242804
              ],
              [
                39.826967,
                21.4243811
              ],
              [
                39.8269623,
                21.4244162
              ],
              [
                39.8269566,
                21.4244607
              ],
              [
                39.8269229,
                21.4247661
              ],
              [
                39.8268586,
                21.4247579
              ],
              [
                39.8268194,
                21.4247538
              ],
              [
                39.8268047,
                21.4247432
              ],
              [
                39.8267673,
                21.4247412
              ],
              [
                39.8267263,
                21.425065
              ],
              [
                39.8267576,
                21.4250689
              ],
              [
                39.8267519,
                21.4251155
              ],
              [
                39.826745,
                21.4251711
              ],
              [
                39.8267429,
                21.4251877
              ],
              [
                39.8267317,
                21.4252777
              ],
              [
                39.8267195,
                21.4253763
              ],
              [
                39.8268041,
                21.4253851
              ],
              [
                39.8268017,
                21.4254295
              ],
              [
                39.8269231,
                21.4254428
              ],
              [
                39.8270416,
                21.4254558
              ],
              [
                39.8271165,
                21.425464
              ],
              [
                39.8271687,
                21.4254685
              ],
              [
                39.8272175,
                21.425475
              ],
              [
                39.8272853,
                21.4254824
              ],
              [
                39.8272896,
                21.4254401
              ],
              [
                39.8273704,
                21.4254461
              ],
              [
                39.8273833,
                21.4253427
              ],
              [
                39.8273881,
                21.4253089
              ],
              [
                39.8270436,
                21.4238781
              ]
            ]
          ],
          [
            [
              [
                39.8265128,
                21.4258315
              ],
              [
                39.8265113,
                21.4257566
              ],
              [
                39.8265093,
                21.4256461
              ],
              [
                39.8264413,
                21.4256445
              ],
              [
                39.8264392,
                21.4255618
              ],
              [
                39.8264365,
                21.4254599
              ],
              [
                39.8264339,
                21.425361
              ],
              [
                39.8264315,
                21.4252683
              ],
              [
                39.8264289,
                21.42517
              ],
              [
                39.8264261,
                21.4250628
              ],
              [
                39.8264237,
                21.4249716
              ],
              [
                39.8264211,
                21.4248736
              ],
              [
                39.8264189,
                21.4247918
              ],
              [
                39.8264419,
                21.4247919
              ],
              [
                39.8264404,
                21.4246937
              ],
              [
                39.8264366,
                21.4245922
              ],
              [
                39.8264131,
                21.4245909
              ],
              [
                39.8264091,
                21.4245269
              ],
              [
                39.8264074,
                21.4244369
              ],
              [
                39.8264032,
                21.4243054
              ],
              [
                39.8263471,
                21.4243082
              ],
              [
                39.8263464,
                21.4242838
              ],
              [
                39.8263303,
                21.4242832
              ],
              [
                39.8263298,
                21.4242675
              ],
              [
                39.8262956,
                21.4242683
              ],
              [
                39.8262355,
                21.4242698
              ],
              [
                39.8261635,
                21.4242716
              ],
              [
                39.8261344,
                21.4242723
              ],
              [
                39.8261348,
                21.4242882
              ],
              [
                39.8261181,
                21.4242869
              ],
              [
                39.8261189,
                21.4243145
              ],
              [
                39.8260892,
                21.4243127
              ],
              [
                39.8260395,
                21.4243081
              ],
              [
                39.8259857,
                21.4243031
              ],
              [
                39.8258979,
                21.4242912
              ],
              [
                39.8258135,
                21.4242793
              ],
              [
                39.8257612,
                21.4242718
              ],
              [
                39.8257091,
                21.4242621
              ],
              [
                39.8256816,
                21.4242556
              ],
              [
                39.8256891,
                21.4242371
              ],
              [
                39.8256708,
                21.424231
              ],
              [
                39.8256762,
                21.4242151
              ],
              [
                39.8256501,
                21.4242068
              ],
              [
                39.8255874,
                21.4241869
              ],
              [
                39.8255205,
                21.4241656
              ],
              [
                39.8254938,
                21.4241571
              ],
              [
                39.8254861,
                21.4241749
              ],
              [
                39.8254697,
                21.4241698
              ],
              [
                39.8254648,
                21.4241841
              ],
              [
                39.8254334,
                21.4241705
              ],
              [
                39.8253797,
                21.4241467
              ],
              [
                39.8253281,
                21.4241268
              ],
              [
                39.825277,
                21.4241024
              ],
              [
                39.8252536,
                21.4240901
              ],
              [
                39.8252608,
                21.4240697
              ],
              [
                39.8251425,
                21.4239936
              ],
              [
                39.8250297,
                21.423921
              ],
              [
                39.8250129,
                21.423937
              ],
              [
                39.8249715,
                21.4239124
              ],
              [
                39.8249317,
                21.4238785
              ],
              [
                39.8248831,
                21.4238427
              ],
              [
                39.8248492,
                21.4238083
              ],
              [
                39.8248226,
                21.4237859
              ],
              [
                39.824836,
                21.4237751
              ],
              [
                39.8248225,
                21.4237629
              ],
              [
                39.8248388,
                21.4237485
              ],
              [
                39.8248211,
                21.4237297
              ],
              [
                39.8247715,
                21.423685
              ],
              [
                39.824726,
                21.4236321
              ],
              [
                39.824712,
                21.4236176
              ],
              [
                39.8246961,
                21.4236293
              ],
              [
                39.8246834,
                21.4236131
              ],
              [
                39.8246667,
                21.4236229
              ],
              [
                39.8246489,
                21.4236006
              ],
              [
                39.8246182,
                21.4235608
              ],
              [
                39.8245865,
                21.4235238
              ],
              [
                39.8245488,
                21.4234545
              ],
              [
                39.8245016,
                21.423388
              ],
              [
                39.8244745,
                21.4233412
              ],
              [
                39.8244521,
                21.4233003
              ],
              [
                39.8244397,
                21.4232736
              ],
              [
                39.824463,
                21.4232649
              ],
              [
                39.8244568,
                21.4232519
              ],
              [
                39.8244779,
                21.4232447
              ],
              [
                39.8244655,
                21.4232158
              ],
              [
                39.8244426,
                21.4231623
              ],
              [
                39.8244163,
                21.4231007
              ],
              [
                39.8244044,
                21.4230733
              ],
              [
                39.8243855,
                21.42308
              ],
              [
                39.8243783,
                21.4230661
              ],
              [
                39.8243589,
                21.423073
              ],
              [
                39.8243373,
                21.4230259
              ],
              [
                39.824229,
                21.4230626
              ],
              [
                39.824128,
                21.4230997
              ],
              [
                39.8240495,
                21.4231285
              ],
              [
                39.824039,
                21.4231063
              ],
              [
                39.8239383,
                21.4231418
              ],
              [
                39.8238384,
                21.4231803
              ],
              [
                39.8238478,
                21.4232026
              ],
              [
                39.823794,
                21.4232223
              ],
              [
                39.823695,
                21.4232587
              ],
              [
                39.8236056,
                21.4232915
              ],
              [
                39.8235106,
                21.4233264
              ],
              [
                39.8233973,
                21.4233679
              ],
              [
                39.8233293,
                21.4233922
              ],
              [
                39.8233196,
                21.4233699
              ],
              [
                39.8232186,
                21.4234074
              ],
              [
                39.8231194,
                21.423444
              ],
              [
                39.8231289,
                21.4234665
              ],
              [
                39.8230643,
                21.4234909
              ],
              [
                39.8229638,
                21.4235289
              ],
              [
                39.8228559,
                21.4235697
              ],
              [
                39.8228453,
                21.4235737
              ],
              [
                39.8265128,
                21.4258315
              ]
            ]
          ],
          [
            [
              [
                39.8265128,
                21.4258315
              ],
              [
                39.826529,
                21.4258465
              ],
              [
                39.8265289,
                21.4259089
              ],
              [
                39.8264815,
                21.4259528
              ],
              [
                39.8264243,
                21.4259528
              ],
              [
                39.8265128,
                21.4258315
              ]
            ]
          ],
          [
            [
              [
                39.8244884,
                21.4254533
              ],
              [
                39.8245471,
                21.4254926
              ],
              [
                39.8246296,
                21.4255473
              ],
              [
                39.8247215,
                21.4256044
              ],
              [
                39.8248174,
                21.4256577
              ],
              [
                39.8249054,
                21.4257127
              ],
              [
                39.8248576,
                21.425832
              ],
              [
                39.8248883,
                21.4258413
              ],
              [
                39.8249786,
                21.4258731
              ],
              [
                39.8250621,
                21.4258956
              ],
              [
                39.8250978,
                21.4259072
              ],
              [
                39.8251491,
                21.4257479
              ],
              [
                39.8252366,
                21.4257583
              ],
              [
                39.8253432,
                21.4257733
              ],
              [
                39.8254521,
                21.4257905
              ],
              [
                39.82554,
                21.4258016
              ],
              [
                39.82554,
                21.4258148
              ],
              [
                39.8256473,
                21.4258286
              ],
              [
                39.8257567,
                21.4258444
              ],
              [
                39.8257591,
                21.4258347
              ],
              [
                39.8260695,
                21.4258671
              ],
              [
                39.8261507,
                21.425877
              ],
              [
                39.8261522,
                21.4260605
              ],
              [
                39.8261863,
                21.42606
              ],
              [
                39.8262801,
                21.4260586
              ],
              [
                39.8263687,
                21.4260562
              ],
              [
                39.8264278,
                21.4260551
              ],
              [
                39.8264243,
                21.4259528
              ],
              [
                39.8244884,
                21.4254533
              ]
            ]
          ],
          [
            [
              [
                39.8243591,
                21.4254866
              ],
              [
                39.8243909,
                21.425507
              ],
              [
                39.8244567,
                21.4254959
              ],
              [
                39.8244884,
                21.4254533
              ],
              [
                39.8243591,
                21.4254866
              ]
            ]
          ],
          [
            [
              [
                39.823951,
                21.4252359
              ],
              [
                39.8239279,
                21.4252675
              ],
              [
                39.824132,
                21.4253914
              ],
              [
                39.8243366,
                21.4255156
              ],
              [
                39.8243591,
                21.4254866
              ],
              [
                39.823951,
                21.4252359
              ]
            ]
          ],
          [
            [
              [
                39.823941,
                21.4251133
              ],
              [
                39.8239094,
                21.4251557
              ],
              [
                39.8239214,
                21.4252169
              ],
              [
                39.823951,
                21.4252359
              ],
              [
                39.823941,
                21.4251133
              ]
            ]
          ],
          [
            [
              [
                39.8226178,
                21.423728
              ],
              [
                39.8226486,
                21.4238034
              ],
              [
                39.8226841,
                21.4238906
              ],
              [
                39.822697,
                21.4239213
              ],
              [
                39.8228765,
                21.4238573
              ],
              [
                39.8229068,
                21.4239143
              ],
              [
                39.8229678,
                21.4240104
              ],
              [
                39.8230331,
                21.424106
              ],
              [
                39.8230704,
                21.4241664
              ],
              [
                39.823059,
                21.4241736
              ],
              [
                39.8231187,
                21.4242646
              ],
              [
                39.8231753,
                21.4243528
              ],
              [
                39.8231871,
                21.4243465
              ],
              [
                39.8232249,
                21.4244004
              ],
              [
                39.8232927,
                21.4245001
              ],
              [
                39.8233597,
                21.4246037
              ],
              [
                39.8233882,
                21.4246576
              ],
              [
                39.8232525,
                21.4247731
              ],
              [
                39.8232746,
                21.4247941
              ],
              [
                39.8233401,
                21.4248566
              ],
              [
                39.8234033,
                21.4249191
              ],
              [
                39.8234284,
                21.4249408
              ],
              [
                39.8235299,
                21.4248615
              ],
              [
                39.8236159,
                21.4249135
              ],
              [
                39.8236984,
                21.4249683
              ],
              [
                39.8237933,
                21.4250248
              ],
              [
                39.8238786,
                21.4250759
              ],
              [
                39.823941,
                21.4251133
              ],
              [
                39.8226178,
                21.423728
              ]
            ]
          ],
          [
            [
              [
                39.8227017,
                21.4236432
              ],
              [
                39.822599,
                21.423682
              ],
              [
                39.8226178,
                21.423728
              ],
              [
                39.8227017,
                21.4236432
              ]
            ]
          ],
          [
            [
              [
                39.8228453,
                21.4235737
              ],
              [
                39.8228285,
                21.4235369
              ],
              [
                39.8227665,
                21.4235136
              ],
              [
                39.8227048,
                21.423538
              ],
              [
                39.8226799,
                21.4235957
              ],
              [
                39.8227017,
                21.4236432
              ],
              [
                39.8228453,
                21.4235737
              ]
            ]
          ],
          [
            [
              [
                39.8263311,
                21.4270228
              ],
              [
                39.8262334,
                21.4270253
              ],
              [
                39.8260831,
                21.4270293
              ],
              [
                39.8260839,
                21.4272247
              ],
              [
                39.8256592,
                21.4272036
              ],
              [
                39.8256658,
                21.4271325
              ],
              [
                39.8255806,
                21.4271292
              ],
              [
                39.8255102,
                21.4274591
              ],
              [
                39.8254472,
                21.4274496
              ],
              [
                39.8251502,
                21.4274048
              ],
              [
                39.8252021,
                21.4271513
              ],
              [
                39.825217,
                21.4270785
              ],
              [
                39.8251314,
                21.4270613
              ],
              [
                39.8251173,
                21.42712
              ],
              [
                39.8247437,
                21.4270302
              ],
              [
                39.8248302,
                21.4268249
              ],
              [
                39.8247249,
                21.4267874
              ],
              [
                39.8246491,
                21.4267648
              ],
              [
                39.8245689,
                21.4267381
              ],
              [
                39.82445,
                21.4267042
              ],
              [
                39.8243526,
                21.4269124
              ],
              [
                39.8241497,
                21.4268431
              ],
              [
                39.8241253,
                21.426864
              ],
              [
                39.8239661,
                21.426789
              ],
              [
                39.8239789,
                21.4267585
              ],
              [
                39.8238273,
                21.4266875
              ],
              [
                39.8238085,
                21.4267103
              ],
              [
                39.8237066,
                21.426656
              ],
              [
                39.8237596,
                21.4265733
              ],
              [
                39.8236973,
                21.4265442
              ],
              [
                39.8234734,
                21.4268531
              ],
              [
                39.8234093,
                21.4268142
              ],
              [
                39.8233561,
                21.4267848
              ],
              [
                39.82336,
                21.4267267
              ],
              [
                39.8233289,
                21.426706
              ],
              [
                39.8233541,
                21.4266617
              ],
              [
                39.8232766,
                21.4266168
              ],
              [
                39.8232373,
                21.4266584
              ],
              [
                39.8232071,
                21.4266444
              ],
              [
                39.8231545,
                21.4266662
              ],
              [
                39.8230334,
                21.4265887
              ],
              [
                39.8232641,
                21.4262872
              ],
              [
                39.8232024,
                21.4262478
              ],
              [
                39.8231381,
                21.4263189
              ],
              [
                39.8230454,
                21.4262604
              ],
              [
                39.8230661,
                21.4262348
              ],
              [
                39.8228885,
                21.4260921
              ],
              [
                39.8228689,
                21.4261137
              ],
              [
                39.8227672,
                21.4260283
              ],
              [
                39.8227913,
                21.4260068
              ],
              [
                39.822667,
                21.4258903
              ],
              [
                39.8226469,
                21.4259092
              ],
              [
                39.8225628,
                21.4258227
              ],
              [
                39.8227171,
                21.4256799
              ],
              [
                39.8226072,
                21.4255685
              ],
              [
                39.8225483,
                21.4255087
              ],
              [
                39.8224842,
                21.4254437
              ],
              [
                39.8224218,
                21.4253804
              ],
              [
                39.8223096,
                21.4254625
              ],
              [
                39.8221388,
                21.425245
              ],
              [
                39.822216,
                21.4251996
              ],
              [
                39.8221191,
                21.4250568
              ],
              [
                39.8217894,
                21.4252506
              ],
              [
                39.8217159,
                21.4251421
              ],
              [
                39.8216386,
                21.4250202
              ],
              [
                39.8219565,
                21.4248457
              ],
              [
                39.8218791,
                21.4247252
              ],
              [
                39.8218069,
                21.4247573
              ],
              [
                39.8216591,
                21.4244905
              ],
              [
                39.8217835,
                21.4244388
              ],
              [
                39.8216971,
                21.4242518
              ],
              [
                39.8216636,
                21.4241795
              ],
              [
                39.8216239,
                21.4240936
              ],
              [
                39.8216054,
                21.4240535
              ],
              [
                39.8209677,
                21.4242962
              ],
              [
                39.8209858,
                21.4243539
              ],
              [
                39.8206958,
                21.424464
              ],
              [
                39.8208421,
                21.4248595
              ],
              [
                39.8203628,
                21.4250714
              ],
              [
                39.8204099,
                21.4251516
              ],
              [
                39.8202194,
                21.4252478
              ],
              [
                39.8205777,
                21.4258243
              ],
              [
                39.8209332,
                21.4263202
              ],
              [
                39.8210523,
                21.4264859
              ],
              [
                39.8218002,
                21.4271434
              ],
              [
                39.8225656,
                21.4277233
              ],
              [
                39.8231332,
                21.4280065
              ],
              [
                39.8239286,
                21.4283319
              ],
              [
                39.8248803,
                21.4285799
              ],
              [
                39.8258289,
                21.42868
              ],
              [
                39.8258565,
                21.4284921
              ],
              [
                39.8264865,
                21.4285057
              ],
              [
                39.8264836,
                21.4284845
              ],
              [
                39.8264801,
                21.4280727
              ],
              [
                39.8267062,
                21.4280648
              ],
              [
                39.8266599,
                21.4275459
              ],
              [
                39.8264587,
                21.4275534
              ],
              [
                39.826448,
                21.4272538
              ],
              [
                39.8265409,
                21.4272569
              ],
              [
                39.8265318,
                21.4270156
              ],
              [
                39.8263963,
                21.4270166
              ],
              [
                39.8263311,
                21.4270228
              ]
            ]
          ]
        ]
      }
    },
    {
      "type": "Feature",
      "properties": {
        "id": "masjid_quba",
        "name": "Masjid Quba",
        "arabic": "مسجد قباء",
        "desc": "The first mosque built in Islamic history.",
        "category": "mosque",
        "color": "#F8F8F4",
        "height": 12,
        "base_height": 0
      },
      "geometry": {
        "type": "Polygon",
        "coordinates": [
          [
            [
              39.6170264,
              24.4398028
            ],
            [
              39.6175493,
              24.4397741
            ],
            [
              39.617483,
              24.4389258
            ],
            [
              39.616961,
              24.4389544
            ],
            [
              39.6170264,
              24.4398028
            ]
          ]
        ]
      }
    },
    {
      "type": "Feature",
      "properties": {
        "id": "kaaba_meezab",
        "name": "Meezab ar-Rahmah (Golden Spout)",
        "arabic": "ميزاب الرحمة",
        "desc": "The golden spout on the northwest wall of the Kaaba overlooking Hijr Ismail.",
        "category": "sacred_detail",
        "color": "#D4AF37",
        "base_height": 14.7,
        "height": 15.2
      },
      "geometry": {
        "type": "Polygon",
        "coordinates": [
          [
            [
              39.82615088747556,
              21.422557350602155
            ],
            [
              39.82615496958263,
              21.422559769262932
            ],
            [
              39.826143537672635,
              21.422576489633958
            ],
            [
              39.82613945556556,
              21.422574070973177
            ],
            [
              39.82615088747556,
              21.422557350602155
            ]
          ]
        ]
      }
    },
    {
      "type": "Feature",
      "properties": {
        "id": "kaaba_door",
        "name": "Bab al-Ka'bah (Golden Door)",
        "arabic": "باب الكعبة المشرفة",
        "desc": "The solid gold door of the Ka'bah elevated 2.13 meters above the ground.",
        "category": "sacred_detail",
        "color": "#D4AF37",
        "base_height": 2.13,
        "height": 5.4
      },
      "geometry": {
        "type": "Polygon",
        "coordinates": [
          [
            [
              39.82621907505046,
              21.42254910439547
            ],
            [
              39.82622975528578,
              21.422534077806723
            ],
            [
              39.82623177300891,
              21.422535320602236
            ],
            [
              39.82622109277359,
              21.42255034719098
            ],
            [
              39.82621907505046,
              21.42254910439547
            ]
          ]
        ]
      }
    },
    {
      "type": "Feature",
      "properties": {
        "id": "kaaba_hizam",
        "name": "Kiswah Calligraphy Belt (Al-Hizam)",
        "arabic": "حزام الكعبة المشرفة",
        "desc": "The gold-embroidered Quranic calligraphy belt encircling the upper Kiswah on all 4 walls.",
        "category": "sacred_detail",
        "color": "#E5C158",
        "base_height": 9.5,
        "height": 10.7
      },
      "geometry": {
        "type": "MultiPolygon",
        "coordinates": [
          [
            [
              [
                39.826109188220634,
                21.42253755601012
              ],
              [
                39.826191888220634,
                21.42258655601012
              ],
              [
                39.82619095288255,
                21.422587924040474
              ],
              [
                39.82610825288255,
                21.422538924040474
              ],
              [
                39.826109188220634,
                21.42253755601012
              ]
            ]
          ],
          [
            [
              [
                39.82619268392721,
                21.422586398729564
              ],
              [
                39.82625508392721,
                21.422498798729563
              ],
              [
                39.82625653570883,
                21.422499694918262
              ],
              [
                39.82619413570883,
                21.422587294918262
              ],
              [
                39.82619268392721,
                21.422586398729564
              ]
            ]
          ],
          [
            [
              [
                39.82625492807833,
                21.422498054009573
              ],
              [
                39.82617382807833,
                21.422446354009573
              ],
              [
                39.82617481231332,
                21.422445016038285
              ],
              [
                39.826255912313314,
                21.422496716038285
              ],
              [
                39.82625492807833,
                21.422498054009573
              ]
            ]
          ],
          [
            [
              [
                39.826173015330106,
                21.422446502315683
              ],
              [
                39.826109015330104,
                21.422536802315683
              ],
              [
                39.82610756132042,
                21.422535909262738
              ],
              [
                39.82617156132042,
                21.422445609262738
              ],
              [
                39.826173015330106,
                21.422446502315683
              ]
            ]
          ]
        ]
      }
    },
    {
      "type": "Feature",
      "properties": {
        "id": "maqam_ibrahim",
        "name": "Maqam Ibrahim",
        "arabic": "مقام إبراهيم عليه السلام",
        "desc": "The sacred stone bearing the footprint of Prophet Ibrahim (peace be upon him) housed in a crystal and gold kiosk.",
        "category": "sacred_detail",
        "color": "#D4AF37",
        "base_height": 0,
        "height": 3.5
      },
      "geometry": {
        "type": "Polygon",
        "coordinates": [
          [
            [
              39.8263091,
              21.4225738
            ],
            [
              39.826312,
              21.4225793
            ],
            [
              39.8263084,
              21.4225844
            ],
            [
              39.8263019,
              21.422584
            ],
            [
              39.826299,
              21.4225785
            ],
            [
              39.8263026,
              21.4225734
            ],
            [
              39.8263091,
              21.4225738
            ]
          ]
        ]
      }
    },
    {
      "type": "Feature",
      "properties": {
        "id": "hijr_ismail",
        "name": "Hijr Ismail (Al-Hateem)",
        "arabic": "حجر إسماعيل (الحطيم)",
        "desc": "The semi-circular white marble wall embracing the northern portion of the Kaaba.",
        "category": "sacred_detail",
        "color": "#FFFFFF",
        "base_height": 0,
        "height": 1.3
      },
      "geometry": {
        "type": "Polygon",
        "coordinates": [
          [
            [
              39.8261737,
              21.422607
            ],
            [
              39.8261664,
              21.4226204
            ],
            [
              39.8261545,
              21.4226305
            ],
            [
              39.8261395,
              21.422636
            ],
            [
              39.8261234,
              21.4226362
            ],
            [
              39.8261083,
              21.4226311
            ],
            [
              39.8260957,
              21.4226209
            ],
            [
              39.826088,
              21.4226071
            ],
            [
              39.8260862,
              21.4225916
            ],
            [
              39.8260907,
              21.4225766
            ],
            [
              39.8261007,
              21.4225642
            ],
            [
              39.8260911,
              21.4225575
            ],
            [
              39.8260797,
              21.4225716
            ],
            [
              39.826074,
              21.4225907
            ],
            [
              39.8260763,
              21.4226104
            ],
            [
              39.8260861,
              21.4226279
            ],
            [
              39.8261021,
              21.4226409
            ],
            [
              39.8261214,
              21.4226474
            ],
            [
              39.8261419,
              21.4226471
            ],
            [
              39.8261609,
              21.4226401
            ],
            [
              39.8261761,
              21.4226273
            ],
            [
              39.8261844,
              21.4226121
            ],
            [
              39.8261737,
              21.422607
            ]
          ]
        ]
      }
    },
    {
      "type": "Feature",
      "properties": {
        "id": "nabawi_green_dome_drum",
        "name": "Green Dome Base Drum",
        "arabic": "قاعدة القبة الخضراء",
        "desc": "The cylindrical base drum of the Green Dome above the Sacred Chamber.",
        "category": "sacred_detail",
        "color": "#155D27",
        "base_height": 13.0,
        "height": 16.0
      },
      "geometry": {
        "type": "Polygon",
        "coordinates": [
          [
            [
              39.6114874,
              24.467501
            ],
            [
              39.6115093,
              24.4675177
            ],
            [
              39.6115236,
              24.4675403
            ],
            [
              39.6115286,
              24.4675659
            ],
            [
              39.6115246,
              24.467589
            ],
            [
              39.6115129,
              24.4676099
            ],
            [
              39.6114947,
              24.4676265
            ],
            [
              39.6114717,
              24.4676372
            ],
            [
              39.6114463,
              24.4676408
            ],
            [
              39.6114208,
              24.4676372
            ],
            [
              39.6113979,
              24.4676265
            ],
            [
              39.6113797,
              24.4676099
            ],
            [
              39.611368,
              24.467589
            ],
            [
              39.611364,
              24.4675659
            ],
            [
              39.6113689,
              24.4675403
            ],
            [
              39.6113832,
              24.4675177
            ],
            [
              39.6114051,
              24.467501
            ],
            [
              39.611432,
              24.4674921
            ],
            [
              39.6114606,
              24.4674921
            ],
            [
              39.6114874,
              24.467501
            ]
          ]
        ]
      }
    },
    {
      "type": "Feature",
      "properties": {
        "id": "nabawi_green_dome_body",
        "name": "The Green Dome (Al-Qubbah al-Khadra)",
        "arabic": "القبة الخضراء الشريفة",
        "desc": "The iconic Green Dome of Prophet Muhammad (peace be upon him).",
        "category": "sacred_detail",
        "color": "#1B5E20",
        "base_height": 16.0,
        "height": 20.5
      },
      "geometry": {
        "type": "Polygon",
        "coordinates": [
          [
            [
              39.6114827122,
              24.467508686
            ],
            [
              39.611501984200004,
              24.467523382
            ],
            [
              39.6115145682,
              24.46754327
            ],
            [
              39.6115189682,
              24.467565798
            ],
            [
              39.6115154482,
              24.467586126
            ],
            [
              39.6115051522,
              24.467604517999998
            ],
            [
              39.6114891362,
              24.467619126000002
            ],
            [
              39.6114688962,
              24.467628542
            ],
            [
              39.6114465442,
              24.467631710000003
            ],
            [
              39.6114241042,
              24.467628542
            ],
            [
              39.6114039522,
              24.467619126000002
            ],
            [
              39.611387936199996,
              24.467604517999998
            ],
            [
              39.6113776402,
              24.467586126
            ],
            [
              39.6113741202,
              24.467565798
            ],
            [
              39.6113784322,
              24.46754327
            ],
            [
              39.611391016199995,
              24.467523382
            ],
            [
              39.6114102882,
              24.467508686
            ],
            [
              39.6114339602,
              24.467500854
            ],
            [
              39.611459128199996,
              24.467500854
            ],
            [
              39.6114827122,
              24.467508686
            ]
          ]
        ]
      }
    },
    {
      "type": "Feature",
      "properties": {
        "id": "nabawi_green_dome_finial",
        "name": "Green Dome Golden Crescent & Finial",
        "arabic": "هلال القبة الخضراء",
        "desc": "The golden crescent atop the Green Dome.",
        "category": "sacred_detail",
        "color": "#D4AF37",
        "base_height": 20.5,
        "height": 23.0
      },
      "geometry": {
        "type": "Polygon",
        "coordinates": [
          [
            [
              39.61145536669999,
              24.467553521
            ],
            [
              39.61145930869999,
              24.467556527
            ],
            [
              39.61146188269999,
              24.467560595
            ],
            [
              39.611462782699995,
              24.467565203
            ],
            [
              39.61146206269999,
              24.467569361
            ],
            [
              39.611459956699996,
              24.467573122999998
            ],
            [
              39.611456680699995,
              24.467576111
            ],
            [
              39.61145254069999,
              24.467578037
            ],
            [
              39.61144796869999,
              24.467578685
            ],
            [
              39.611443378699995,
              24.467578037
            ],
            [
              39.611439256699995,
              24.467576111
            ],
            [
              39.611435980699994,
              24.467573122999998
            ],
            [
              39.61143387469999,
              24.467569361
            ],
            [
              39.611433154699995,
              24.467565203
            ],
            [
              39.6114340367,
              24.467560595
            ],
            [
              39.61143661069999,
              24.467556527
            ],
            [
              39.611440552699996,
              24.467553521
            ],
            [
              39.61144539469999,
              24.467551918999998
            ],
            [
              39.61145054269999,
              24.467551918999998
            ],
            [
              39.61145536669999,
              24.467553521
            ]
          ]
        ]
      }
    },
    {
      "type": "Feature",
      "properties": {
        "id": "hajar_al_aswad",
        "name": "Al-Hajar al-Aswad (The Black Stone)",
        "arabic": "الحجر الأسود الشريف",
        "desc": "The sacred Black Stone mounted in its pure silver casing at Rukn al-Aswad, marking the beginning of Tawaf.",
        "category": "sacred_detail",
        "color": "#E2E8F0",
        "base_height": 1.1,
        "height": 1.6
      },
      "geometry": {
        "type": "Polygon",
        "coordinates": [
          [
            [
              39.82625858959449,
              21.42249777646906
            ],
            [
              39.826258147492915,
              21.422499803673254
            ],
            [
              39.826256295046775,
              21.422500946107736
            ],
            [
              39.826254117393894,
              21.422500534549876
            ],
            [
              39.82625289017379,
              21.422498810084686
            ],
            [
              39.826253332275364,
              21.422496782880494
            ],
            [
              39.826255184721504,
              21.422495640446012
            ],
            [
              39.826257362374385,
              21.422496052003872
            ],
            [
              39.82625858959449,
              21.42249777646906
            ]
          ]
        ]
      }
    },
    {
      "type": "Feature",
      "properties": {
        "id": "tawaf_start_line",
        "name": "Tawaf Start & End Line (Khat Bidayah wa Nihayah)",
        "arabic": "خط بداية ونهاية الطواف المحاذي للحجر الأسود",
        "desc": "The green marble line on the Mataf floor aligned directly with the Black Stone marking the start and finish of each circuit.",
        "category": "sacred_detail",
        "color": "#00E676",
        "base_height": 0.0,
        "height": 0.1
      },
      "geometry": {
        "type": "Polygon",
        "coordinates": [
          [
            [
              39.82625553146053,
              21.422500868806285
            ],
            [
              39.826520295047374,
              21.42241064629165
            ],
            [
              39.82684109504737,
              21.42229274629165
            ],
            [
              39.826839104952626,
              21.422288053708353
            ],
            [
              39.82651830495263,
              21.422405953708353
            ],
            [
              39.826253668539465,
              21.422496131193714
            ],
            [
              39.82625553146053,
              21.422500868806285
            ]
          ]
        ]
      }
    }
  ]
}