{"type":"FeatureCollection","features":[{"type":"Feature","properties":{"elev_absolute":376.5,"min_height":25,"height":50},"geometry":{"type":"MultiPolygon","coordinates":[[[[39.852474,21.459668],[39.852474,21.459785],[39.852474,21.459902],[39.852578,21.46002],[39.852578,21.460137],[39.85261,21.460179],[39.852751,21.460179],[39.852798,21.460254],[39.852798,21.460371],[39.852798,21.460488],[39.852751,21.460596],[39.85261,21.460596],[39.852469,21.460544],[39.852328,21.460544],[39.852233,21.460488],[39.852233,21.460371],[39.852233,21.460254],[39.852207,21.460137],[39.852207,21.46002],[39.852186,21.45994],[39.852045,21.45994],[39.852039,21.459902],[39.852039,21.459785],[39.852039,21.459668],[39.852045,21.459655],[39.852186,21.459655],[39.852328,21.459661],[39.852469,21.459661],[39.852474,21.459668]]],[[[39.852901,21.450176],[39.853033,21.45027],[39.853174,21.450245],[39.853232,21.450293],[39.853315,21.450362],[39.853373,21.45041],[39.853456,21.45046],[39.853597,21.45046],[39.853679,21.450527],[39.853738,21.450568],[39.85383,21.450645],[39.853879,21.450685],[39.85402,21.45068],[39.854119,21.450762],[39.854161,21.450796],[39.854261,21.450879],[39.854302,21.450917],[39.854443,21.450917],[39.854539,21.450996],[39.854585,21.451048],[39.854664,21.451113],[39.854726,21.451165],[39.854867,21.451187],[39.854919,21.45123],[39.855008,21.451321],[39.85507,21.451348],[39.85507,21.451465],[39.85507,21.451582],[39.855008,21.451694],[39.854867,21.451694],[39.854864,21.451699],[39.854864,21.451816],[39.854844,21.451934],[39.854844,21.452051],[39.854867,21.452097],[39.855008,21.452097],[39.855041,21.452168],[39.855041,21.452285],[39.855041,21.452402],[39.855109,21.45252],[39.855109,21.452637],[39.855113,21.452754],[39.855113,21.452871],[39.855113,21.452988],[39.855101,21.453105],[39.855101,21.453223],[39.855121,21.45334],[39.855121,21.453457],[39.855149,21.453551],[39.85529,21.453551],[39.855301,21.453574],[39.855301,21.453691],[39.855301,21.453809],[39.855359,21.453926],[39.855359,21.454043],[39.85543,21.45416],[39.85543,21.454277],[39.855431,21.454279],[39.855572,21.454279],[39.855671,21.454395],[39.855671,21.454512],[39.855671,21.454629],[39.855713,21.454677],[39.855854,21.454677],[39.855928,21.454746],[39.855928,21.454863],[39.855995,21.454969],[39.856136,21.454969],[39.856148,21.45498],[39.856148,21.455098],[39.856148,21.455215],[39.856277,21.455263],[39.856418,21.455263],[39.856536,21.455215],[39.856536,21.455098],[39.856536,21.45498],[39.856559,21.454968],[39.8567,21.454968],[39.856842,21.454899],[39.856983,21.454899],[39.857124,21.45488],[39.857265,21.45488],[39.857356,21.454863],[39.857356,21.454746],[39.857406,21.454732],[39.857547,21.454732],[39.857688,21.454651],[39.857829,21.454651],[39.857878,21.454629],[39.857878,21.454512],[39.857878,21.454395],[39.85797,21.454346],[39.858111,21.454346],[39.858252,21.454317],[39.858393,21.454317],[39.858534,21.45431],[39.858675,21.45431],[39.858764,21.454277],[39.858764,21.45416],[39.858816,21.454141],[39.858957,21.454141],[39.859099,21.454076],[39.85924,21.454063],[39.859381,21.454063],[39.859522,21.454071],[39.859663,21.454071],[39.859804,21.454114],[39.859945,21.454114],[39.860086,21.45413],[39.860227,21.45413],[39.860368,21.454139],[39.860509,21.454139],[39.860595,21.45416],[39.860595,21.454277],[39.86065,21.45429],[39.860791,21.45429],[39.860932,21.454312],[39.861073,21.454312],[39.861214,21.454391],[39.861356,21.454391],[39.861364,21.454395],[39.861364,21.454512],[39.861364,21.454629],[39.861497,21.454679],[39.861638,21.454679],[39.861775,21.454629],[39.861775,21.454512],[39.861775,21.454395],[39.861779,21.454389],[39.86192,21.454389],[39.861971,21.454277],[39.861971,21.45416],[39.862061,21.454119],[39.862202,21.454119],[39.862343,21.454112],[39.862484,21.454112],[39.862625,21.454117],[39.862766,21.454117],[39.862907,21.45414],[39.863048,21.45414],[39.863189,21.454156],[39.86333,21.454156],[39.863339,21.45416],[39.863339,21.454277],[39.863419,21.454395],[39.863419,21.454512],[39.863419,21.454629],[39.863471,21.454703],[39.863613,21.454703],[39.863654,21.454746],[39.863654,21.454863],[39.863754,21.454944],[39.863895,21.454944],[39.864036,21.454949],[39.864177,21.454949],[39.864318,21.454896],[39.864459,21.454896],[39.864514,21.454863],[39.864514,21.454746],[39.864573,21.454629],[39.864573,21.454512],[39.864573,21.454395],[39.8646,21.454363],[39.864741,21.454363],[39.864882,21.45428],[39.865023,21.45428],[39.865164,21.454336],[39.865305,21.454336],[39.865394,21.454395],[39.865394,21.454512],[39.865394,21.454629],[39.865446,21.454648],[39.865587,21.454648],[39.865728,21.454721],[39.86587,21.454721],[39.865913,21.454746],[39.865913,21.454863],[39.866011,21.454899],[39.866152,21.454899],[39.866293,21.454898],[39.866434,21.454898],[39.866575,21.454886],[39.866716,21.454886],[39.866857,21.454975],[39.866998,21.454975],[39.867005,21.45498],[39.867005,21.455098],[39.867005,21.455215],[39.867091,21.455332],[39.867091,21.455449],[39.867139,21.45555],[39.86728,21.45555],[39.867298,21.455566],[39.867298,21.455684],[39.86728,21.455699],[39.867139,21.455699],[39.867051,21.455801],[39.867051,21.455918],[39.867051,21.456035],[39.867025,21.456152],[39.867025,21.45627],[39.866998,21.45632],[39.866857,21.45632],[39.866716,21.456354],[39.866575,21.456354],[39.866434,21.456371],[39.866293,21.456371],[39.866242,21.456387],[39.866242,21.456504],[39.866152,21.456553],[39.866011,21.456553],[39.86591,21.456621],[39.86591,21.456738],[39.86591,21.456855],[39.86587,21.456902],[39.865728,21.456902],[39.865668,21.456973],[39.865668,21.45709],[39.865653,21.457207],[39.865653,21.457324],[39.865653,21.457441],[39.865721,21.457559],[39.865721,21.457676],[39.865728,21.4577],[39.86587,21.4577],[39.865901,21.457793],[39.865901,21.45791],[39.866011,21.457981],[39.866152,21.457981],[39.866258,21.458027],[39.866258,21.458145],[39.866258,21.458262],[39.866293,21.458269],[39.866434,21.458269],[39.866575,21.458283],[39.866716,21.458283],[39.866857,21.458279],[39.866998,21.458279],[39.867026,21.458262],[39.867026,21.458145],[39.867026,21.458027],[39.867139,21.457965],[39.86728,21.457965],[39.867312,21.458027],[39.867312,21.458145],[39.86728,21.458171],[39.867171,21.458262],[39.8672,21.458379],[39.8672,21.458496],[39.867219,21.458613],[39.867219,21.45873],[39.867234,21.458848],[39.867234,21.458965],[39.867234,21.459082],[39.867236,21.459199],[39.867236,21.459316],[39.867231,21.459434],[39.867139,21.45951],[39.867096,21.459551],[39.867087,21.459668],[39.867087,21.459785],[39.867087,21.459902],[39.867067,21.46002],[39.867067,21.460137],[39.867024,21.460254],[39.867024,21.460371],[39.867024,21.460488],[39.866998,21.460537],[39.866857,21.460537],[39.866716,21.460524],[39.866575,21.460524],[39.866434,21.460583],[39.866293,21.460583],[39.866267,21.460605],[39.866267,21.460723],[39.866152,21.460799],[39.866011,21.460799],[39.865953,21.46084],[39.865953,21.460957],[39.865892,21.461074],[39.865892,21.461191],[39.865892,21.461309],[39.86587,21.46133],[39.865728,21.46133],[39.865587,21.461374],[39.865446,21.461374],[39.865305,21.461359],[39.865164,21.461359],[39.865023,21.461359],[39.864882,21.461359],[39.864741,21.461383],[39.8646,21.461383],[39.864459,21.461416],[39.864318,21.461416],[39.864286,21.461426],[39.864286,21.461543],[39.864177,21.461579],[39.864036,21.461579],[39.863895,21.461646],[39.863754,21.461646],[39.863722,21.46166],[39.863722,21.461777],[39.863674,21.461895],[39.863674,21.462012],[39.863674,21.462129],[39.863685,21.462246],[39.863685,21.462363],[39.863613,21.46244],[39.863471,21.46244],[39.86333,21.462432],[39.863189,21.462432],[39.863122,21.462363],[39.863122,21.462246],[39.863048,21.462224],[39.862907,21.462224],[39.862766,21.462209],[39.862625,21.462209],[39.862507,21.462246],[39.862507,21.462363],[39.862484,21.462374],[39.862343,21.462374],[39.862202,21.462414],[39.862061,21.462414],[39.861972,21.462363],[39.861972,21.462246],[39.86192,21.46221],[39.861779,21.46221],[39.861683,21.462129],[39.861683,21.462012],[39.861683,21.461895],[39.861651,21.461777],[39.861651,21.46166],[39.861638,21.461619],[39.861497,21.461619],[39.861429,21.461543],[39.861429,21.461426],[39.861356,21.46137],[39.861214,21.46137],[39.861124,21.461426],[39.861124,21.461543],[39.861073,21.46159],[39.860932,21.46159],[39.860883,21.46166],[39.860883,21.461777],[39.860791,21.461824],[39.86065,21.461824],[39.860509,21.46185],[39.860368,21.46185],[39.860339,21.461777],[39.860339,21.46166],[39.860349,21.461543],[39.860349,21.461426],[39.860313,21.461309],[39.860313,21.461191],[39.860313,21.461074],[39.860227,21.461023],[39.860086,21.461023],[39.859945,21.461005],[39.859804,21.461005],[39.859663,21.461035],[39.859522,21.461035],[39.859411,21.461074],[39.859411,21.461191],[39.859411,21.461309],[39.859381,21.461315],[39.85924,21.461315],[39.859099,21.461335],[39.858957,21.46131],[39.858816,21.46131],[39.858813,21.461309],[39.858813,21.461191],[39.858813,21.461074],[39.858686,21.460957],[39.858686,21.46084],[39.858675,21.460818],[39.858534,21.460818],[39.858422,21.460723],[39.858422,21.460605],[39.858393,21.460595],[39.858252,21.460595],[39.858111,21.460522],[39.85797,21.460522],[39.857915,21.460488],[39.857915,21.460371],[39.857915,21.460254],[39.857829,21.460159],[39.857688,21.460159],[39.857656,21.460137],[39.857656,21.46002],[39.857547,21.459977],[39.857406,21.459977],[39.857265,21.459933],[39.857124,21.459933],[39.857062,21.459902],[39.857062,21.459785],[39.857062,21.459668],[39.856983,21.459606],[39.856842,21.459606],[39.856764,21.459551],[39.856764,21.459434],[39.8567,21.459396],[39.856559,21.459396],[39.856418,21.459318],[39.856277,21.459318],[39.856277,21.459316],[39.856277,21.459199],[39.856252,21.459082],[39.856252,21.458965],[39.856252,21.458848],[39.856273,21.45873],[39.856273,21.458613],[39.856249,21.458496],[39.856249,21.458379],[39.856165,21.458262],[39.856165,21.458145],[39.856165,21.458027],[39.856139,21.45791],[39.856139,21.457793],[39.856152,21.457676],[39.856152,21.457559],[39.856163,21.457441],[39.856163,21.457324],[39.856163,21.457207],[39.856136,21.457132],[39.855995,21.457132],[39.855966,21.45709],[39.855966,21.456973],[39.855861,21.456855],[39.855861,21.456738],[39.855861,21.456621],[39.855854,21.456615],[39.855713,21.456615],[39.855676,21.456621],[39.855676,21.456738],[39.855676,21.456855],[39.855572,21.456869],[39.855431,21.456869],[39.855307,21.456973],[39.855307,21.45709],[39.85529,21.457107],[39.855149,21.457107],[39.855086,21.457207],[39.855086,21.457324],[39.855086,21.457441],[39.855026,21.457559],[39.855026,21.457676],[39.855008,21.45771],[39.854867,21.45771],[39.854806,21.457793],[39.854806,21.45791],[39.854726,21.458015],[39.854585,21.458015],[39.854572,21.458027],[39.854572,21.458145],[39.854572,21.458262],[39.854443,21.458349],[39.854302,21.458349],[39.854264,21.458379],[39.854264,21.458496],[39.854161,21.458571],[39.85402,21.458571],[39.853879,21.458582],[39.853738,21.458582],[39.853597,21.458516],[39.853456,21.458516],[39.853432,21.458496],[39.853432,21.458379],[39.853329,21.458262],[39.853329,21.458145],[39.853329,21.458027],[39.853315,21.458009],[39.853174,21.458009],[39.85307,21.45791],[39.85307,21.457793],[39.853033,21.457769],[39.852892,21.457769],[39.852763,21.457676],[39.852763,21.457559],[39.852751,21.457528],[39.85261,21.457528],[39.852551,21.457441],[39.852551,21.457324],[39.852551,21.457207],[39.852469,21.457161],[39.852328,21.457161],[39.852221,21.45709],[39.852221,21.456973],[39.852233,21.456855],[39.852233,21.456738],[39.852233,21.456621],[39.85224,21.456504],[39.85224,21.456387],[39.85228,21.45627],[39.85228,21.456152],[39.852186,21.45608],[39.852045,21.45608],[39.851949,21.456035],[39.851949,21.455918],[39.851949,21.455801],[39.851904,21.455783],[39.851763,21.455783],[39.851622,21.455721],[39.851481,21.455721],[39.851444,21.455684],[39.851444,21.455566],[39.851387,21.455449],[39.851387,21.455332],[39.851445,21.455215],[39.851445,21.455098],[39.851445,21.45498],[39.851451,21.454863],[39.851451,21.454746],[39.85134,21.454712],[39.851199,21.454712],[39.851058,21.454742],[39.850917,21.454742],[39.850776,21.454733],[39.850758,21.454629],[39.850758,21.454512],[39.850758,21.454395],[39.85075,21.454277],[39.85075,21.45416],[39.85074,21.454043],[39.85074,21.453926],[39.850725,21.453809],[39.850635,21.453734],[39.850584,21.453691],[39.850584,21.453574],[39.850581,21.453457],[39.850581,21.45334],[39.850582,21.453223],[39.850582,21.453105],[39.850596,21.452988],[39.850596,21.452871],[39.850596,21.452754],[39.850635,21.45265],[39.850776,21.45265],[39.850787,21.452637],[39.850787,21.45252],[39.850869,21.452402],[39.850869,21.452285],[39.850869,21.452168],[39.850898,21.452051],[39.850898,21.451934],[39.850917,21.451918],[39.851015,21.451816],[39.851058,21.451781],[39.851133,21.451699],[39.851199,21.451645],[39.851262,21.451582],[39.85134,21.451517],[39.851393,21.451465],[39.851481,21.451391],[39.851534,21.451348],[39.851622,21.451274],[39.851669,21.45123],[39.851763,21.451152],[39.85181,21.451113],[39.85182,21.450996],[39.851904,21.450926],[39.851969,21.450879],[39.852045,21.450816],[39.85213,21.450762],[39.852186,21.450715],[39.852285,21.450645],[39.852328,21.450609],[39.852426,21.450527],[39.852469,21.450492],[39.852601,21.45041],[39.85261,21.450403],[39.852742,21.450293],[39.852751,21.450273],[39.852865,21.450176],[39.852892,21.450168],[39.852901,21.450176]]]]}},{"type":"Feature","properties":{"elev_absolute":401.5,"min_height":50,"height":75},"geometry":{"type":"MultiPolygon","coordinates":[[[[39.859794,21.454395],[39.859794,21.454512],[39.859794,21.454629],[39.859804,21.454633],[39.859945,21.454633],[39.860086,21.454672],[39.860227,21.454672],[39.860368,21.454682],[39.860509,21.454682],[39.86065,21.454692],[39.860791,21.454692],[39.860915,21.454746],[39.860915,21.454863],[39.860932,21.454875],[39.861073,21.454875],[39.861184,21.45498],[39.861184,21.455098],[39.861184,21.455215],[39.861214,21.45527],[39.861356,21.45527],[39.861416,21.455332],[39.861416,21.455449],[39.861497,21.455513],[39.861638,21.455513],[39.861765,21.455566],[39.861765,21.455684],[39.861779,21.455689],[39.86192,21.455689],[39.862061,21.45572],[39.862202,21.45572],[39.862298,21.455684],[39.862298,21.455566],[39.862331,21.455449],[39.862331,21.455332],[39.862343,21.455306],[39.862484,21.455306],[39.862536,21.455215],[39.862536,21.455098],[39.862536,21.45498],[39.862625,21.454869],[39.862766,21.454869],[39.862907,21.45492],[39.863048,21.45492],[39.863096,21.45498],[39.863096,21.455098],[39.863096,21.455215],[39.863189,21.455276],[39.86333,21.455276],[39.863431,21.455332],[39.863431,21.455449],[39.863471,21.455468],[39.863613,21.455468],[39.863754,21.455549],[39.863895,21.455549],[39.864036,21.455542],[39.864177,21.455542],[39.864318,21.455503],[39.864459,21.455503],[39.864553,21.455449],[39.864553,21.455332],[39.8646,21.455315],[39.864741,21.455315],[39.864882,21.455267],[39.865023,21.455267],[39.865164,21.455239],[39.865305,21.455239],[39.865446,21.455261],[39.865587,21.455261],[39.865728,21.455297],[39.86587,21.455297],[39.866011,21.455316],[39.866152,21.455316],[39.866293,21.455323],[39.866434,21.455323],[39.866458,21.455332],[39.866458,21.455449],[39.866531,21.455566],[39.866531,21.455684],[39.866476,21.455801],[39.866476,21.455918],[39.866476,21.456035],[39.866434,21.45607],[39.866293,21.45607],[39.866152,21.456143],[39.866011,21.456143],[39.865994,21.456152],[39.865994,21.45627],[39.86587,21.456323],[39.865728,21.456323],[39.865603,21.456387],[39.865603,21.456504],[39.865587,21.456514],[39.865446,21.456514],[39.865305,21.456581],[39.865164,21.456581],[39.865107,21.456621],[39.865107,21.456738],[39.865107,21.456855],[39.865062,21.456973],[39.865062,21.45709],[39.86503,21.457207],[39.86503,21.457324],[39.86503,21.457441],[39.865023,21.457489],[39.864882,21.457489],[39.864873,21.457559],[39.864873,21.457676],[39.864882,21.457691],[39.865023,21.457691],[39.865093,21.457793],[39.865093,21.45791],[39.865164,21.457985],[39.865305,21.457985],[39.865341,21.458027],[39.865341,21.458145],[39.865341,21.458262],[39.865446,21.458324],[39.865587,21.458324],[39.865723,21.458379],[39.865723,21.458496],[39.865728,21.458498],[39.86587,21.458498],[39.866011,21.458544],[39.866152,21.458544],[39.866293,21.458554],[39.866434,21.458554],[39.866575,21.458582],[39.866716,21.458582],[39.866857,21.458599],[39.866998,21.458599],[39.867139,21.458547],[39.867158,21.458613],[39.867158,21.45873],[39.867188,21.458848],[39.867188,21.458965],[39.867188,21.459082],[39.867192,21.459199],[39.867192,21.459316],[39.867182,21.459434],[39.867139,21.459469],[39.867052,21.459551],[39.867035,21.459668],[39.867035,21.459785],[39.867035,21.459902],[39.866998,21.460014],[39.866857,21.460014],[39.866716,21.459996],[39.866575,21.459996],[39.866434,21.460015],[39.866293,21.460015],[39.866284,21.46002],[39.866284,21.460137],[39.866152,21.46021],[39.866011,21.46021],[39.865885,21.460254],[39.865885,21.460371],[39.865885,21.460488],[39.86587,21.460496],[39.865728,21.460496],[39.865612,21.460605],[39.865612,21.460723],[39.865587,21.46076],[39.865446,21.46076],[39.865314,21.46084],[39.865314,21.460957],[39.865305,21.460959],[39.865164,21.460959],[39.86515,21.460957],[39.86515,21.46084],[39.865023,21.460813],[39.864882,21.460813],[39.864741,21.460803],[39.8646,21.460803],[39.864459,21.460775],[39.864318,21.460775],[39.864177,21.460805],[39.864036,21.460805],[39.863996,21.46084],[39.863996,21.460957],[39.863895,21.46103],[39.863754,21.46103],[39.863613,21.461069],[39.863471,21.461069],[39.86333,21.461066],[39.863189,21.461066],[39.863171,21.461074],[39.863171,21.461191],[39.863171,21.461309],[39.863084,21.461426],[39.863084,21.461543],[39.863048,21.461608],[39.862907,21.461608],[39.862824,21.46166],[39.862824,21.461777],[39.862766,21.46179],[39.862625,21.46179],[39.862484,21.461797],[39.862343,21.461797],[39.862277,21.461777],[39.862277,21.46166],[39.862202,21.46162],[39.862061,21.46162],[39.862001,21.461543],[39.862001,21.461426],[39.861955,21.461309],[39.861955,21.461191],[39.861955,21.461074],[39.86192,21.46099],[39.861779,21.46099],[39.861765,21.460957],[39.861765,21.46084],[39.861737,21.460723],[39.861737,21.460605],[39.861659,21.460488],[39.861659,21.460371],[39.861659,21.460254],[39.861638,21.460236],[39.861497,21.460236],[39.861356,21.460248],[39.861214,21.460248],[39.861203,21.460254],[39.861203,21.460371],[39.861203,21.460488],[39.861073,21.460541],[39.860932,21.460541],[39.860791,21.460553],[39.86065,21.460553],[39.860509,21.460514],[39.860368,21.460514],[39.860227,21.46049],[39.860086,21.46049],[39.859945,21.46053],[39.859804,21.46053],[39.859663,21.460565],[39.859522,21.460565],[39.859381,21.460566],[39.85924,21.460566],[39.859099,21.460516],[39.859072,21.460488],[39.859072,21.460371],[39.859072,21.460254],[39.858957,21.460195],[39.858816,21.460195],[39.858675,21.46015],[39.858534,21.46015],[39.858494,21.460137],[39.858494,21.46002],[39.858393,21.45997],[39.858252,21.45997],[39.858185,21.459902],[39.858185,21.459785],[39.858185,21.459668],[39.858111,21.459633],[39.85797,21.459633],[39.857829,21.459592],[39.857688,21.459592],[39.857587,21.459551],[39.857587,21.459434],[39.857547,21.459402],[39.857406,21.459402],[39.857335,21.459316],[39.857335,21.459199],[39.857265,21.459103],[39.857124,21.459103],[39.857093,21.459082],[39.857093,21.458965],[39.857093,21.458848],[39.857011,21.45873],[39.857011,21.458613],[39.856997,21.458496],[39.856997,21.458379],[39.856983,21.458353],[39.856842,21.458353],[39.856763,21.458262],[39.856763,21.458145],[39.856763,21.458027],[39.8567,21.457985],[39.856559,21.457985],[39.856479,21.45791],[39.856479,21.457793],[39.856481,21.457676],[39.856481,21.457559],[39.856526,21.457441],[39.856526,21.457324],[39.856526,21.457207],[39.856489,21.45709],[39.856489,21.456973],[39.856461,21.456855],[39.856461,21.456738],[39.856461,21.456621],[39.856431,21.456504],[39.856431,21.456387],[39.856418,21.456359],[39.856277,21.456359],[39.856227,21.45627],[39.856227,21.456152],[39.856189,21.456035],[39.856189,21.455918],[39.856189,21.455801],[39.856277,21.455727],[39.856418,21.455727],[39.856485,21.455684],[39.856485,21.455566],[39.856559,21.455532],[39.8567,21.455532],[39.856842,21.455459],[39.856983,21.455459],[39.857012,21.455449],[39.857012,21.455332],[39.857124,21.455298],[39.857265,21.455298],[39.857406,21.455291],[39.857547,21.455291],[39.857688,21.455255],[39.857829,21.455255],[39.857934,21.455215],[39.857934,21.455098],[39.857934,21.45498],[39.85797,21.454966],[39.858111,21.454966],[39.858252,21.454909],[39.858393,21.454909],[39.858534,21.454863],[39.858534,21.454746],[39.858534,21.454746],[39.858675,21.454746],[39.858816,21.454676],[39.858957,21.454676],[39.859062,21.454629],[39.859062,21.454512],[39.859062,21.454395],[39.859099,21.454377],[39.85924,21.454329],[39.859381,21.454329],[39.859522,21.454337],[39.859663,21.454337],[39.859794,21.454395]]],[[[39.853619,21.450527],[39.853738,21.450609],[39.853781,21.450645],[39.853879,21.450726],[39.85402,21.450715],[39.854077,21.450762],[39.854161,21.45083],[39.854221,21.450879],[39.854302,21.450954],[39.854443,21.450954],[39.854494,21.450996],[39.854585,21.451099],[39.854602,21.451113],[39.854726,21.451216],[39.854783,21.45123],[39.854737,21.451348],[39.854737,21.451465],[39.854737,21.451582],[39.854726,21.451605],[39.854585,21.451605],[39.854538,21.451699],[39.854538,21.451816],[39.854483,21.451934],[39.854483,21.452051],[39.854539,21.452168],[39.854539,21.452285],[39.854539,21.452402],[39.854585,21.452462],[39.854726,21.452462],[39.85476,21.45252],[39.85476,21.452637],[39.854776,21.452754],[39.854776,21.452871],[39.854776,21.452988],[39.854789,21.453105],[39.854789,21.453223],[39.85481,21.45334],[39.85481,21.453457],[39.854821,21.453574],[39.854821,21.453691],[39.854821,21.453809],[39.854852,21.453926],[39.854852,21.454043],[39.854867,21.454064],[39.855008,21.454064],[39.855069,21.45416],[39.855069,21.454277],[39.855121,21.454395],[39.855121,21.454512],[39.855121,21.454629],[39.855149,21.454665],[39.85529,21.454665],[39.855357,21.454746],[39.855357,21.454863],[39.855431,21.454959],[39.855572,21.454959],[39.85559,21.45498],[39.85559,21.455098],[39.85559,21.455215],[39.855671,21.455332],[39.855671,21.455449],[39.855704,21.455566],[39.855704,21.455684],[39.855639,21.455801],[39.855639,21.455918],[39.855639,21.456035],[39.855572,21.456096],[39.855431,21.456096],[39.855387,21.456152],[39.855387,21.45627],[39.85529,21.456365],[39.855149,21.456365],[39.855109,21.456387],[39.855109,21.456504],[39.855008,21.456569],[39.854867,21.456569],[39.854817,21.456621],[39.854817,21.456738],[39.854817,21.456855],[39.854731,21.456973],[39.854731,21.45709],[39.854726,21.457096],[39.854585,21.457096],[39.854497,21.457207],[39.854497,21.457324],[39.854497,21.457441],[39.854443,21.457521],[39.854302,21.457521],[39.854267,21.457559],[39.854267,21.457676],[39.854161,21.457769],[39.85402,21.457769],[39.853879,21.457755],[39.853738,21.457755],[39.853644,21.457676],[39.853644,21.457559],[39.853597,21.457529],[39.853456,21.457529],[39.853346,21.457441],[39.853346,21.457324],[39.853346,21.457207],[39.853315,21.457174],[39.853174,21.457174],[39.853107,21.45709],[39.853107,21.456973],[39.853033,21.456883],[39.852892,21.456883],[39.852867,21.456855],[39.852867,21.456738],[39.852867,21.456621],[39.852887,21.456504],[39.852887,21.456387],[39.852892,21.456339],[39.853033,21.456339],[39.853038,21.45627],[39.853038,21.456152],[39.853033,21.456143],[39.852892,21.456143],[39.852823,21.456035],[39.852823,21.455918],[39.852823,21.455801],[39.852751,21.455749],[39.85261,21.455749],[39.852492,21.455684],[39.852492,21.455566],[39.852469,21.455557],[39.852328,21.455557],[39.852186,21.455475],[39.852045,21.455475],[39.852016,21.455449],[39.852016,21.455332],[39.851975,21.455215],[39.851975,21.455098],[39.851975,21.45498],[39.851968,21.454863],[39.851968,21.454746],[39.851952,21.454629],[39.851952,21.454512],[39.851952,21.454395],[39.851904,21.454322],[39.851763,21.454322],[39.851622,21.454296],[39.851481,21.454296],[39.851423,21.454277],[39.851423,21.45416],[39.85134,21.45412],[39.851199,21.45412],[39.851127,21.454043],[39.851127,21.453926],[39.851058,21.453835],[39.850917,21.453835],[39.850898,21.453809],[39.850898,21.453691],[39.850898,21.453574],[39.85084,21.453457],[39.85084,21.45334],[39.850843,21.453223],[39.850843,21.453105],[39.850874,21.452988],[39.850874,21.452871],[39.850874,21.452754],[39.850917,21.452706],[39.851058,21.452706],[39.85115,21.452637],[39.85115,21.45252],[39.851199,21.452467],[39.85134,21.452467],[39.851416,21.452402],[39.851416,21.452285],[39.851416,21.452168],[39.851439,21.452051],[39.851439,21.451934],[39.851373,21.451816],[39.851373,21.451699],[39.85134,21.451658],[39.851325,21.451582],[39.85134,21.45157],[39.851445,21.451465],[39.851481,21.451435],[39.851586,21.451348],[39.851622,21.451318],[39.851716,21.45123],[39.851763,21.451191],[39.851857,21.451113],[39.851878,21.450996],[39.851904,21.450974],[39.852034,21.450879],[39.852045,21.450869],[39.852186,21.450838],[39.852328,21.450854],[39.852469,21.450854],[39.85261,21.450823],[39.852751,21.450823],[39.852892,21.450811],[39.853033,21.450811],[39.853172,21.450762],[39.853172,21.450645],[39.853172,21.450527],[39.853174,21.450526],[39.853315,21.450526],[39.853456,21.450509],[39.853597,21.450509],[39.853619,21.450527]]]]}},{"type":"Feature","properties":{"elev_absolute":426.5,"min_height":75,"height":100},"geometry":{"type":"MultiPolygon","coordinates":[[[[39.865588,21.455566],[39.865588,21.455684],[39.865657,21.455801],[39.865657,21.455918],[39.865657,21.456035],[39.865587,21.456082],[39.865446,21.456082],[39.865328,21.456152],[39.865328,21.45627],[39.865305,21.456276],[39.865164,21.456276],[39.865044,21.45627],[39.865044,21.456152],[39.865043,21.456035],[39.865043,21.455918],[39.865043,21.455801],[39.865164,21.455695],[39.865305,21.455695],[39.865443,21.455684],[39.865443,21.455566],[39.865446,21.455566],[39.865587,21.455566],[39.865588,21.455566]]],[[[39.85971,21.454746],[39.85971,21.454863],[39.859804,21.454899],[39.859945,21.454899],[39.860086,21.454924],[39.860227,21.454924],[39.860368,21.454935],[39.860509,21.454935],[39.860644,21.45498],[39.860644,21.455098],[39.860644,21.455215],[39.86065,21.455222],[39.860791,21.455222],[39.860856,21.455332],[39.860856,21.455449],[39.860874,21.455566],[39.860874,21.455684],[39.860932,21.455747],[39.861073,21.455747],[39.861131,21.455801],[39.861131,21.455918],[39.861131,21.456035],[39.861214,21.456096],[39.861356,21.456096],[39.861463,21.456152],[39.861463,21.45627],[39.861497,21.456282],[39.861638,21.456282],[39.861779,21.456321],[39.86192,21.456321],[39.862061,21.456369],[39.862202,21.456369],[39.862255,21.456387],[39.862255,21.456504],[39.862343,21.456524],[39.862484,21.456524],[39.862625,21.456535],[39.862766,21.456535],[39.862842,21.456504],[39.862842,21.456387],[39.862877,21.45627],[39.862877,21.456152],[39.862907,21.456093],[39.863048,21.456093],[39.86316,21.456035],[39.86316,21.455918],[39.86316,21.455801],[39.863189,21.455793],[39.86333,21.455793],[39.863351,21.455801],[39.863351,21.455918],[39.863351,21.456035],[39.863471,21.456066],[39.863613,21.456066],[39.863754,21.456075],[39.863895,21.456075],[39.864036,21.456083],[39.864177,21.456083],[39.864318,21.456107],[39.864459,21.456107],[39.8646,21.456132],[39.864741,21.456132],[39.864866,21.456152],[39.864866,21.45627],[39.864758,21.456387],[39.864758,21.456504],[39.864741,21.456544],[39.8646,21.456544],[39.86458,21.456621],[39.86458,21.456738],[39.86458,21.456855],[39.864556,21.456973],[39.864556,21.45709],[39.864489,21.457207],[39.864489,21.457324],[39.864489,21.457441],[39.864459,21.457513],[39.864318,21.457513],[39.864295,21.457559],[39.864295,21.457676],[39.864318,21.457703],[39.864459,21.457703],[39.864524,21.457793],[39.864524,21.45791],[39.8646,21.45801],[39.864741,21.45801],[39.864757,21.458027],[39.864757,21.458145],[39.864757,21.458262],[39.864882,21.458335],[39.865023,21.458335],[39.865095,21.458379],[39.865095,21.458496],[39.865164,21.458553],[39.865305,21.458553],[39.865446,21.458609],[39.865587,21.458609],[39.865602,21.458613],[39.865602,21.45873],[39.865728,21.458766],[39.86587,21.458766],[39.866011,21.45881],[39.866152,21.45881],[39.866293,21.458844],[39.866434,21.458844],[39.866444,21.458848],[39.866444,21.458965],[39.866444,21.459082],[39.866575,21.45916],[39.866716,21.45916],[39.866857,21.459118],[39.866998,21.459118],[39.867094,21.459082],[39.867094,21.458965],[39.867094,21.458848],[39.867139,21.458837],[39.867142,21.458848],[39.867142,21.458965],[39.867142,21.459082],[39.867148,21.459199],[39.867148,21.459316],[39.867139,21.459388],[39.867091,21.459434],[39.867009,21.459551],[39.866998,21.459605],[39.866857,21.459605],[39.866716,21.459582],[39.866575,21.459582],[39.866434,21.459592],[39.866293,21.459592],[39.866152,21.459655],[39.866011,21.459655],[39.865976,21.459668],[39.865976,21.459785],[39.865976,21.459902],[39.86587,21.459945],[39.865728,21.459945],[39.865587,21.45997],[39.865446,21.45997],[39.865356,21.46002],[39.865356,21.460137],[39.865305,21.460175],[39.865164,21.460175],[39.865023,21.460206],[39.864882,21.460206],[39.864741,21.460206],[39.8646,21.460206],[39.864459,21.460184],[39.864318,21.460184],[39.864177,21.46021],[39.864036,21.46021],[39.863977,21.460254],[39.863977,21.460371],[39.863977,21.460488],[39.863895,21.460566],[39.863754,21.460566],[39.863699,21.460605],[39.863699,21.460723],[39.863613,21.460765],[39.863471,21.460765],[39.86333,21.460769],[39.863189,21.460769],[39.863048,21.460771],[39.862907,21.460771],[39.862766,21.46083],[39.862625,21.46083],[39.862601,21.46084],[39.862601,21.460957],[39.862493,21.461074],[39.862493,21.461191],[39.862493,21.461309],[39.862484,21.461312],[39.862343,21.461312],[39.86234,21.461309],[39.86234,21.461191],[39.86234,21.461074],[39.862297,21.460957],[39.862297,21.46084],[39.862269,21.460723],[39.862269,21.460605],[39.862212,21.460488],[39.862212,21.460371],[39.862212,21.460254],[39.862202,21.460242],[39.862061,21.460242],[39.861984,21.460137],[39.861984,21.46002],[39.86192,21.459958],[39.861779,21.459958],[39.86169,21.459902],[39.86169,21.459785],[39.86169,21.459668],[39.861638,21.459641],[39.861497,21.459641],[39.861356,21.45966],[39.861214,21.45966],[39.861193,21.459668],[39.861193,21.459785],[39.861193,21.459902],[39.861073,21.459988],[39.860932,21.459988],[39.860791,21.460007],[39.86065,21.460007],[39.860509,21.459984],[39.860368,21.459984],[39.860227,21.459976],[39.860086,21.459976],[39.859945,21.460015],[39.859804,21.460015],[39.859761,21.46002],[39.859761,21.460137],[39.859663,21.460149],[39.859522,21.460149],[39.859482,21.460137],[39.859482,21.46002],[39.859381,21.459985],[39.85924,21.459985],[39.859099,21.459931],[39.858975,21.459902],[39.858975,21.459785],[39.858975,21.459668],[39.858957,21.459664],[39.858816,21.459664],[39.858675,21.459614],[39.858534,21.459614],[39.858445,21.459551],[39.858445,21.459434],[39.858393,21.459402],[39.858252,21.459402],[39.858111,21.459345],[39.85797,21.459345],[39.857904,21.459316],[39.857904,21.459199],[39.857859,21.459082],[39.857859,21.458965],[39.857859,21.458848],[39.857829,21.458803],[39.857688,21.458803],[39.85763,21.45873],[39.85763,21.458613],[39.857547,21.45851],[39.857406,21.45851],[39.857396,21.458496],[39.857396,21.458379],[39.857338,21.458262],[39.857338,21.458145],[39.857338,21.458027],[39.857268,21.45791],[39.857268,21.457793],[39.857265,21.457789],[39.857124,21.457789],[39.857006,21.457676],[39.857006,21.457559],[39.857027,21.457441],[39.857027,21.457324],[39.857027,21.457207],[39.856986,21.45709],[39.856986,21.456973],[39.856983,21.456966],[39.856842,21.456966],[39.856782,21.456855],[39.856782,21.456738],[39.856782,21.456621],[39.856753,21.456504],[39.856753,21.456387],[39.85672,21.45627],[39.85672,21.456152],[39.856732,21.456035],[39.856732,21.455918],[39.856732,21.455801],[39.856842,21.455733],[39.856983,21.455733],[39.85711,21.455684],[39.85711,21.455566],[39.857124,21.455561],[39.857265,21.455561],[39.857406,21.455553],[39.857547,21.455553],[39.857688,21.455535],[39.857829,21.455535],[39.85797,21.455502],[39.858111,21.455502],[39.858236,21.455449],[39.858236,21.455332],[39.858252,21.455324],[39.858393,21.455324],[39.858534,21.455258],[39.858675,21.455258],[39.858762,21.455215],[39.858762,21.455098],[39.858762,21.45498],[39.858816,21.454953],[39.858957,21.454953],[39.859099,21.454877],[39.859135,21.454863],[39.859135,21.454746],[39.85924,21.454715],[39.859381,21.454715],[39.859522,21.454724],[39.859663,21.454724],[39.85971,21.454746]]],[[[39.854035,21.450762],[39.854161,21.450864],[39.85418,21.450879],[39.854302,21.450992],[39.854443,21.450992],[39.854448,21.450996],[39.854449,21.451113],[39.854449,21.45123],[39.854443,21.451247],[39.854302,21.451247],[39.854267,21.451348],[39.854267,21.451465],[39.854267,21.451582],[39.854216,21.451699],[39.854216,21.451816],[39.854174,21.451934],[39.854174,21.452051],[39.854162,21.452168],[39.854162,21.452285],[39.854162,21.452402],[39.854283,21.45252],[39.854283,21.452637],[39.854302,21.452689],[39.854443,21.452689],[39.854461,21.452754],[39.854461,21.452871],[39.854461,21.452988],[39.854484,21.453105],[39.854484,21.453223],[39.85451,21.45334],[39.85451,21.453457],[39.854508,21.453574],[39.854508,21.453691],[39.854508,21.453809],[39.85452,21.453926],[39.85452,21.454043],[39.854576,21.45416],[39.854576,21.454277],[39.854585,21.454292],[39.854726,21.454292],[39.854779,21.454395],[39.854779,21.454512],[39.854779,21.454629],[39.854859,21.454746],[39.854859,21.454863],[39.854867,21.454871],[39.855008,21.454871],[39.855107,21.45498],[39.855107,21.455098],[39.855107,21.455215],[39.855149,21.455273],[39.85529,21.455273],[39.855331,21.455332],[39.855331,21.455449],[39.855343,21.455566],[39.855343,21.455684],[39.85529,21.455768],[39.855149,21.455768],[39.855124,21.455801],[39.855124,21.455918],[39.855124,21.456035],[39.855008,21.456124],[39.854867,21.456124],[39.854809,21.456152],[39.854809,21.45627],[39.854726,21.456322],[39.854585,21.456322],[39.854515,21.456387],[39.854515,21.456504],[39.854443,21.456597],[39.854302,21.456597],[39.854282,21.456621],[39.854282,21.456738],[39.854282,21.456855],[39.854161,21.456966],[39.85402,21.456966],[39.854005,21.456973],[39.854005,21.45709],[39.853879,21.457138],[39.853738,21.457138],[39.853657,21.45709],[39.853657,21.456973],[39.853597,21.45693],[39.853456,21.45693],[39.853389,21.456855],[39.853389,21.456738],[39.853389,21.456621],[39.853383,21.456504],[39.853383,21.456387],[39.853386,21.45627],[39.853386,21.456152],[39.853349,21.456035],[39.853349,21.455918],[39.853349,21.455801],[39.853315,21.455756],[39.853174,21.455756],[39.853093,21.455684],[39.853093,21.455566],[39.853033,21.455513],[39.852892,21.455513],[39.852794,21.455449],[39.852794,21.455332],[39.852751,21.4553],[39.85261,21.4553],[39.852501,21.455215],[39.852501,21.455098],[39.852501,21.45498],[39.852479,21.454863],[39.852479,21.454746],[39.852469,21.454648],[39.852328,21.454648],[39.852325,21.454629],[39.852325,21.454512],[39.852325,21.454395],[39.852328,21.454384],[39.852469,21.454384],[39.852496,21.454277],[39.852496,21.45416],[39.852578,21.454043],[39.852578,21.453926],[39.85261,21.45383],[39.852751,21.45383],[39.852757,21.453809],[39.852757,21.453691],[39.852757,21.453574],[39.852751,21.453568],[39.85261,21.453568],[39.852469,21.453512],[39.852328,21.453512],[39.852186,21.453502],[39.852045,21.453502],[39.851904,21.45354],[39.851763,21.45354],[39.851649,21.453574],[39.851649,21.453691],[39.851649,21.453809],[39.851622,21.453815],[39.851481,21.453815],[39.85147,21.453809],[39.85147,21.453691],[39.85147,21.453574],[39.85134,21.453489],[39.851199,21.453489],[39.851172,21.453457],[39.851172,21.45334],[39.851176,21.453223],[39.851176,21.453105],[39.851199,21.453068],[39.85134,21.453068],[39.851436,21.452988],[39.851436,21.452871],[39.851436,21.452754],[39.851481,21.452726],[39.851622,21.452726],[39.851726,21.452637],[39.851726,21.45252],[39.851763,21.452487],[39.851904,21.452487],[39.851982,21.452402],[39.851982,21.452285],[39.851982,21.452168],[39.851992,21.452051],[39.851992,21.451934],[39.851919,21.451816],[39.851919,21.451699],[39.851904,21.451675],[39.851763,21.451675],[39.85171,21.451582],[39.85171,21.451465],[39.85171,21.451348],[39.851763,21.45123],[39.851763,21.45123],[39.851904,21.451113],[39.851904,21.451113],[39.851905,21.451113],[39.851905,21.45123],[39.852045,21.451275],[39.852186,21.451275],[39.852328,21.45128],[39.852469,21.45128],[39.852607,21.45123],[39.852607,21.451113],[39.85261,21.451112],[39.852751,21.451112],[39.852779,21.451113],[39.852779,21.45123],[39.852892,21.451233],[39.853033,21.451233],[39.853086,21.45123],[39.853086,21.451113],[39.853174,21.451107],[39.853315,21.451107],[39.853456,21.451042],[39.853597,21.451042],[39.853723,21.450996],[39.853723,21.450879],[39.853738,21.450861],[39.853879,21.450861],[39.853918,21.450762],[39.85402,21.45075],[39.854035,21.450762]]]]}},{"type":"Feature","properties":{"elev_absolute":451.5,"min_height":100,"height":125},"geometry":{"type":"MultiPolygon","coordinates":[[[[39.860286,21.455332],[39.860286,21.455449],[39.860318,21.455566],[39.860318,21.455684],[39.860368,21.455772],[39.860509,21.455772],[39.860529,21.455801],[39.860529,21.455918],[39.860529,21.456035],[39.860637,21.456152],[39.860637,21.45627],[39.86065,21.456281],[39.860791,21.456281],[39.860932,21.456387],[39.860932,21.456504],[39.860932,21.456504],[39.861073,21.456504],[39.861214,21.456558],[39.861356,21.456558],[39.861497,21.456604],[39.861638,21.456604],[39.861697,21.456621],[39.861697,21.456738],[39.861697,21.456855],[39.861779,21.456873],[39.86192,21.456873],[39.862061,21.456895],[39.862202,21.456895],[39.862343,21.456924],[39.862484,21.456924],[39.862625,21.45695],[39.862766,21.45695],[39.862859,21.456973],[39.862859,21.45709],[39.862907,21.457102],[39.863048,21.457102],[39.863189,21.457101],[39.86333,21.457101],[39.863398,21.45709],[39.863398,21.456973],[39.86346,21.456855],[39.86346,21.456738],[39.86346,21.456621],[39.863471,21.456579],[39.863613,21.456579],[39.863754,21.45651],[39.863895,21.45651],[39.864036,21.456511],[39.864177,21.456511],[39.864225,21.456621],[39.864225,21.456738],[39.864225,21.456855],[39.864186,21.456973],[39.864186,21.45709],[39.864177,21.457099],[39.864036,21.457099],[39.863895,21.457172],[39.863754,21.457172],[39.863706,21.457207],[39.863706,21.457324],[39.863706,21.457441],[39.863752,21.457559],[39.863752,21.457676],[39.863754,21.457677],[39.863895,21.457677],[39.864002,21.457793],[39.864002,21.45791],[39.864036,21.457948],[39.864177,21.457948],[39.864241,21.458027],[39.864241,21.458145],[39.864241,21.458262],[39.864318,21.458345],[39.864459,21.458345],[39.864504,21.458379],[39.864504,21.458496],[39.8646,21.458555],[39.864741,21.458555],[39.864824,21.458613],[39.864824,21.45873],[39.864882,21.458807],[39.865023,21.458807],[39.865084,21.458848],[39.865084,21.458965],[39.865084,21.459082],[39.865164,21.459119],[39.865305,21.459119],[39.865446,21.459133],[39.865587,21.459133],[39.865713,21.459199],[39.865713,21.459316],[39.865587,21.459404],[39.865446,21.459404],[39.865398,21.459434],[39.865398,21.459551],[39.865305,21.459586],[39.865164,21.459586],[39.865023,21.459632],[39.864882,21.459632],[39.864741,21.459623],[39.8646,21.459623],[39.864459,21.459645],[39.864318,21.459645],[39.864177,21.459667],[39.864036,21.459667],[39.864033,21.459668],[39.864033,21.459785],[39.864033,21.459902],[39.863895,21.459963],[39.863754,21.459963],[39.863677,21.46002],[39.863677,21.460137],[39.863613,21.460214],[39.863471,21.460214],[39.863402,21.460254],[39.863402,21.460371],[39.863402,21.460488],[39.86333,21.460505],[39.863189,21.460505],[39.863048,21.460501],[39.862907,21.460501],[39.862822,21.460488],[39.862822,21.460371],[39.862822,21.460254],[39.862766,21.460243],[39.862625,21.460243],[39.862484,21.460147],[39.862343,21.460147],[39.862334,21.460137],[39.862334,21.46002],[39.862225,21.459902],[39.862225,21.459785],[39.862225,21.459668],[39.862202,21.459645],[39.862061,21.459645],[39.861963,21.459551],[39.861963,21.459434],[39.86192,21.459402],[39.861779,21.459402],[39.861638,21.459352],[39.861497,21.459352],[39.861356,21.45939],[39.861214,21.45939],[39.861073,21.459409],[39.860932,21.459409],[39.86086,21.459434],[39.86086,21.459551],[39.860791,21.459583],[39.86065,21.459583],[39.860509,21.459594],[39.860368,21.459594],[39.860227,21.459586],[39.860086,21.459586],[39.859945,21.459616],[39.859804,21.459616],[39.859663,21.459609],[39.859522,21.459609],[39.859381,21.459556],[39.85924,21.459556],[39.859226,21.459551],[39.859226,21.459434],[39.859099,21.459386],[39.858957,21.459344],[39.858816,21.459344],[39.858758,21.459316],[39.858758,21.459199],[39.858675,21.459163],[39.858534,21.459163],[39.858414,21.459082],[39.858414,21.458965],[39.858414,21.458848],[39.858393,21.458827],[39.858252,21.458827],[39.858175,21.45873],[39.858175,21.458613],[39.858111,21.458529],[39.85797,21.458529],[39.857943,21.458496],[39.857943,21.458379],[39.857841,21.458262],[39.857841,21.458145],[39.857841,21.458027],[39.857829,21.458011],[39.857688,21.458011],[39.857621,21.45791],[39.857621,21.457793],[39.857547,21.45769],[39.857406,21.45769],[39.857394,21.457676],[39.857394,21.457559],[39.857354,21.457441],[39.857354,21.457324],[39.857354,21.457207],[39.857312,21.45709],[39.857312,21.456973],[39.857265,21.456914],[39.857124,21.456914],[39.857088,21.456855],[39.857088,21.456738],[39.857088,21.456621],[39.857062,21.456504],[39.857062,21.456387],[39.857049,21.45627],[39.857049,21.456152],[39.857124,21.456063],[39.857265,21.456063],[39.857406,21.456051],[39.857547,21.456051],[39.857687,21.456035],[39.857687,21.455918],[39.857687,21.455801],[39.857688,21.455801],[39.857829,21.455801],[39.85797,21.455778],[39.858111,21.455778],[39.858252,21.455737],[39.858393,21.455737],[39.858492,21.455684],[39.858492,21.455566],[39.858534,21.455541],[39.858675,21.455541],[39.858816,21.455468],[39.858957,21.455468],[39.859002,21.455449],[39.859002,21.455332],[39.859099,21.455288],[39.85924,21.455246],[39.859381,21.455246],[39.859522,21.455239],[39.859663,21.455239],[39.859804,21.455265],[39.859945,21.455265],[39.860086,21.455298],[39.860227,21.455298],[39.860286,21.455332]]],[[[39.85388,21.451699],[39.85388,21.451816],[39.853879,21.451822],[39.853738,21.451822],[39.85372,21.451934],[39.85372,21.452051],[39.853695,21.452168],[39.853695,21.452285],[39.853695,21.452402],[39.853738,21.4525],[39.853879,21.4525],[39.853892,21.45252],[39.853892,21.452637],[39.853993,21.452754],[39.853993,21.452871],[39.853993,21.452988],[39.85402,21.45304],[39.854161,21.45304],[39.854183,21.453105],[39.854183,21.453223],[39.854199,21.45334],[39.854199,21.453457],[39.854186,21.453574],[39.854186,21.453691],[39.854186,21.453809],[39.854197,21.453926],[39.854197,21.454043],[39.854233,21.45416],[39.854233,21.454277],[39.854302,21.454376],[39.854443,21.454376],[39.854456,21.454395],[39.854456,21.454512],[39.854456,21.454629],[39.854532,21.454746],[39.854532,21.454863],[39.854585,21.454927],[39.854726,21.454927],[39.854776,21.45498],[39.854776,21.455098],[39.854776,21.455215],[39.854867,21.455307],[39.855008,21.455307],[39.855027,21.455332],[39.855027,21.455449],[39.85502,21.455566],[39.85502,21.455684],[39.855008,21.455698],[39.854867,21.455698],[39.854726,21.455773],[39.854585,21.455773],[39.854539,21.455801],[39.854539,21.455918],[39.854539,21.456035],[39.854443,21.456124],[39.854302,21.456124],[39.854261,21.456152],[39.854261,21.45627],[39.854161,21.456347],[39.85402,21.456347],[39.853879,21.45632],[39.853738,21.45632],[39.853724,21.45627],[39.853724,21.456152],[39.853668,21.456035],[39.853668,21.455918],[39.853668,21.455801],[39.853597,21.455687],[39.853456,21.455687],[39.853453,21.455684],[39.853453,21.455566],[39.853361,21.455449],[39.853361,21.455332],[39.853315,21.455285],[39.853174,21.455285],[39.853079,21.455215],[39.853079,21.455098],[39.853079,21.45498],[39.853033,21.454944],[39.852892,21.454944],[39.852825,21.454863],[39.852825,21.454746],[39.85282,21.454629],[39.85282,21.454512],[39.85282,21.454395],[39.852892,21.454294],[39.853033,21.454294],[39.853044,21.454277],[39.853044,21.45416],[39.853118,21.454043],[39.853118,21.453926],[39.853174,21.453828],[39.853315,21.453828],[39.853327,21.453809],[39.853327,21.453691],[39.853327,21.453574],[39.853315,21.453491],[39.853174,21.453491],[39.853167,21.453457],[39.853167,21.45334],[39.853033,21.453248],[39.852892,21.453248],[39.85282,21.453223],[39.85282,21.453105],[39.852751,21.453086],[39.85261,21.453086],[39.852469,21.453037],[39.852328,21.453037],[39.852253,21.452988],[39.852253,21.452871],[39.852253,21.452754],[39.852289,21.452637],[39.852289,21.45252],[39.852328,21.452455],[39.852469,21.452455],[39.852493,21.452402],[39.852493,21.452285],[39.852493,21.452168],[39.85251,21.452051],[39.85251,21.451934],[39.852548,21.451816],[39.852548,21.451699],[39.85261,21.451669],[39.852751,21.451669],[39.852892,21.451627],[39.853033,21.451627],[39.853174,21.451607],[39.853315,21.451607],[39.853456,21.451587],[39.853597,21.451587],[39.853738,21.451693],[39.853879,21.451693],[39.85388,21.451699]]]]}},{"type":"Feature","properties":{"elev_absolute":476.5,"min_height":125,"height":150},"geometry":{"type":"MultiPolygon","coordinates":[[[[39.859753,21.455566],[39.859753,21.455684],[39.859804,21.455695],[39.859945,21.455695],[39.860007,21.455801],[39.860007,21.455918],[39.860007,21.456035],[39.860086,21.45611],[39.860227,21.45611],[39.860265,21.456152],[39.860265,21.45627],[39.860368,21.456349],[39.860509,21.456349],[39.860553,21.456387],[39.860553,21.456504],[39.86065,21.456599],[39.860791,21.456599],[39.860823,21.456621],[39.860823,21.456738],[39.860823,21.456855],[39.860932,21.456927],[39.861073,21.456927],[39.86119,21.456973],[39.86119,21.45709],[39.861214,21.4571],[39.861356,21.4571],[39.861497,21.457137],[39.861638,21.457137],[39.861779,21.457145],[39.86192,21.457145],[39.862061,21.457174],[39.862202,21.457174],[39.86231,21.457207],[39.86231,21.457324],[39.86231,21.457441],[39.862343,21.457451],[39.862484,21.457451],[39.862625,21.457479],[39.862766,21.457479],[39.862907,21.457513],[39.863048,21.457513],[39.863176,21.457559],[39.863176,21.457676],[39.863189,21.457681],[39.86333,21.457681],[39.863471,21.457784],[39.863613,21.457784],[39.863622,21.457793],[39.863622,21.45791],[39.863754,21.458023],[39.863895,21.458023],[39.863899,21.458027],[39.863899,21.458145],[39.863899,21.458262],[39.86398,21.458379],[39.86398,21.458496],[39.864036,21.458549],[39.864177,21.458549],[39.864278,21.458613],[39.864278,21.45873],[39.864318,21.458773],[39.864459,21.458773],[39.864524,21.458848],[39.864524,21.458965],[39.864524,21.459082],[39.864485,21.459199],[39.864485,21.459316],[39.864459,21.459333],[39.864318,21.459333],[39.864177,21.459407],[39.864036,21.459407],[39.863947,21.459434],[39.863947,21.459551],[39.863895,21.459566],[39.863754,21.459566],[39.863613,21.459626],[39.863471,21.459626],[39.863373,21.459668],[39.863373,21.459785],[39.863373,21.459902],[39.86333,21.45993],[39.863189,21.45993],[39.863048,21.459968],[39.862907,21.459968],[39.862766,21.459915],[39.862625,21.459915],[39.862611,21.459902],[39.862611,21.459785],[39.862611,21.459668],[39.862484,21.45958],[39.862343,21.45958],[39.862313,21.459551],[39.862313,21.459434],[39.862211,21.459316],[39.862211,21.459199],[39.862202,21.459192],[39.862061,21.459192],[39.86192,21.459085],[39.861779,21.459085],[39.861773,21.459082],[39.861773,21.458965],[39.861773,21.458848],[39.861638,21.458789],[39.861497,21.458789],[39.861356,21.458824],[39.861214,21.458824],[39.861164,21.458848],[39.861164,21.458965],[39.861164,21.459082],[39.861073,21.459115],[39.860932,21.459115],[39.860791,21.45915],[39.86065,21.45915],[39.860509,21.459181],[39.860368,21.459181],[39.860227,21.459186],[39.860086,21.459186],[39.859945,21.459193],[39.859804,21.459193],[39.859663,21.45919],[39.859522,21.45919],[39.859381,21.459147],[39.85924,21.459147],[39.859099,21.459098],[39.859055,21.459082],[39.859055,21.458965],[39.859055,21.458848],[39.858957,21.45881],[39.858816,21.45881],[39.858704,21.45873],[39.858704,21.458613],[39.858675,21.458585],[39.858534,21.458585],[39.858448,21.458496],[39.858448,21.458379],[39.858393,21.458323],[39.858252,21.458323],[39.858198,21.458262],[39.858198,21.458145],[39.858198,21.458027],[39.858111,21.457919],[39.85797,21.457919],[39.857963,21.45791],[39.857963,21.457793],[39.857875,21.457676],[39.857875,21.457559],[39.857829,21.457484],[39.857688,21.457484],[39.857667,21.457441],[39.857667,21.457324],[39.857667,21.457207],[39.857641,21.45709],[39.857641,21.456973],[39.857583,21.456855],[39.857583,21.456738],[39.857583,21.456621],[39.857601,21.456504],[39.857601,21.456387],[39.857688,21.456339],[39.857829,21.456339],[39.85797,21.456285],[39.858111,21.456285],[39.858147,21.45627],[39.858147,21.456152],[39.858252,21.456113],[39.858393,21.456113],[39.858534,21.45605],[39.858675,21.45605],[39.858708,21.456035],[39.858708,21.455918],[39.858708,21.455801],[39.858816,21.455748],[39.858957,21.455748],[39.859099,21.455703],[39.85918,21.455684],[39.85918,21.455566],[39.85924,21.455549],[39.859381,21.455549],[39.859522,21.455555],[39.859663,21.455555],[39.859753,21.455566]]],[[[39.853896,21.45416],[39.853896,21.454277],[39.853981,21.454395],[39.853981,21.454512],[39.853981,21.454629],[39.85402,21.454677],[39.854161,21.454677],[39.854211,21.454746],[39.854211,21.454863],[39.854291,21.45498],[39.854291,21.455098],[39.854291,21.455215],[39.854302,21.455231],[39.854443,21.455231],[39.854525,21.455332],[39.854525,21.455449],[39.854445,21.455566],[39.854445,21.455684],[39.854443,21.455685],[39.854302,21.455685],[39.854161,21.455744],[39.85402,21.455744],[39.853956,21.455684],[39.853956,21.455566],[39.853879,21.45548],[39.853738,21.45548],[39.853717,21.455449],[39.853717,21.455332],[39.853622,21.455215],[39.853622,21.455098],[39.853622,21.45498],[39.853597,21.454949],[39.853456,21.454949],[39.853372,21.454863],[39.853372,21.454746],[39.853338,21.454629],[39.853338,21.454512],[39.853338,21.454395],[39.853396,21.454277],[39.853396,21.45416],[39.853456,21.454086],[39.853597,21.454086],[39.853738,21.454127],[39.853879,21.454127],[39.853896,21.45416]]],[[[39.85333,21.451934],[39.85333,21.452051],[39.853355,21.452168],[39.853355,21.452285],[39.853355,21.452402],[39.853351,21.45252],[39.853351,21.452637],[39.853315,21.452728],[39.853174,21.452728],[39.853033,21.45269],[39.852892,21.45269],[39.85284,21.452637],[39.85284,21.45252],[39.852857,21.452402],[39.852857,21.452285],[39.852857,21.452168],[39.852892,21.452107],[39.853033,21.452107],[39.853138,21.452051],[39.853138,21.451934],[39.853174,21.45192],[39.853315,21.45192],[39.85333,21.451934]]]]}},{"type":"Feature","properties":{"elev_absolute":501.5,"min_height":150,"height":175},"geometry":{"type":"MultiPolygon","coordinates":[[[[39.859755,21.456152],[39.859755,21.45627],[39.859804,21.45629],[39.859945,21.45629],[39.860086,21.456377],[39.860227,21.456377],[39.860239,21.456387],[39.860239,21.456504],[39.860368,21.456609],[39.860509,21.456609],[39.860522,21.456621],[39.860522,21.456738],[39.860522,21.456855],[39.860601,21.456973],[39.860601,21.45709],[39.86065,21.457142],[39.860791,21.457142],[39.860891,21.457207],[39.860891,21.457324],[39.860891,21.457441],[39.860932,21.457463],[39.861073,21.457463],[39.861214,21.457494],[39.861356,21.457494],[39.861497,21.457516],[39.861638,21.457516],[39.861779,21.457533],[39.86192,21.457533],[39.861989,21.457559],[39.861989,21.457676],[39.862061,21.457703],[39.862202,21.457703],[39.862343,21.457737],[39.862484,21.457737],[39.862625,21.457781],[39.862766,21.457781],[39.862823,21.457793],[39.862823,21.45791],[39.862907,21.457926],[39.863048,21.457926],[39.863189,21.457983],[39.86333,21.457983],[39.863402,21.458027],[39.863402,21.458145],[39.863402,21.458262],[39.863471,21.45834],[39.863613,21.45834],[39.863641,21.458379],[39.863641,21.458496],[39.86374,21.458613],[39.86374,21.45873],[39.863754,21.458739],[39.863895,21.458739],[39.864036,21.458845],[39.864177,21.458845],[39.864179,21.458848],[39.864179,21.458965],[39.864179,21.459082],[39.864177,21.459086],[39.864036,21.459086],[39.86394,21.459199],[39.86394,21.459316],[39.863895,21.459335],[39.863754,21.459335],[39.863613,21.459354],[39.863471,21.459354],[39.86333,21.459391],[39.863189,21.459391],[39.863048,21.459399],[39.862907,21.459399],[39.862766,21.459342],[39.862625,21.459342],[39.862602,21.459316],[39.862602,21.459199],[39.862484,21.459083],[39.862343,21.459083],[39.862341,21.459082],[39.862341,21.458965],[39.862341,21.458848],[39.862237,21.45873],[39.862237,21.458613],[39.862202,21.458555],[39.862061,21.458555],[39.861963,21.458496],[39.861963,21.458379],[39.86192,21.458367],[39.861779,21.458367],[39.861638,21.458367],[39.861497,21.458367],[39.861371,21.458379],[39.861371,21.458496],[39.861356,21.458498],[39.861214,21.458498],[39.861073,21.458561],[39.860932,21.458561],[39.860834,21.458613],[39.860834,21.45873],[39.860791,21.45875],[39.86065,21.45875],[39.860509,21.458792],[39.860368,21.458792],[39.860227,21.458811],[39.860086,21.458811],[39.859945,21.458809],[39.859804,21.458809],[39.859663,21.458791],[39.859522,21.458791],[39.859381,21.458755],[39.85924,21.458755],[39.859133,21.45873],[39.859133,21.458613],[39.859099,21.458604],[39.858957,21.458518],[39.858816,21.458518],[39.858793,21.458496],[39.858793,21.458379],[39.858694,21.458262],[39.858694,21.458145],[39.858694,21.458027],[39.858675,21.458006],[39.858534,21.458006],[39.858456,21.45791],[39.858456,21.457793],[39.858393,21.457707],[39.858252,21.457707],[39.858231,21.457676],[39.858231,21.457559],[39.858168,21.457441],[39.858168,21.457324],[39.858168,21.457207],[39.858124,21.45709],[39.858124,21.456973],[39.858111,21.456918],[39.85797,21.456918],[39.857955,21.456855],[39.857955,21.456738],[39.857955,21.456621],[39.85797,21.456604],[39.858111,21.456604],[39.858239,21.456504],[39.858239,21.456387],[39.858252,21.456381],[39.858393,21.456381],[39.858534,21.456327],[39.858675,21.456327],[39.858801,21.45627],[39.858801,21.456152],[39.858816,21.456146],[39.858957,21.456146],[39.859099,21.456096],[39.85924,21.456072],[39.859381,21.456072],[39.859522,21.456098],[39.859663,21.456098],[39.859755,21.456152]]]]}},{"type":"Feature","properties":{"elev_absolute":526.5,"min_height":175,"height":200},"geometry":{"type":"MultiPolygon","coordinates":[[[[39.863121,21.458379],[39.863121,21.458496],[39.863181,21.458613],[39.863181,21.45873],[39.863189,21.458748],[39.86333,21.458748],[39.863404,21.458848],[39.863404,21.458965],[39.863404,21.459082],[39.86333,21.459108],[39.863189,21.459108],[39.863048,21.459097],[39.862907,21.459097],[39.862888,21.459082],[39.862888,21.458965],[39.862888,21.458848],[39.862766,21.458731],[39.862625,21.458731],[39.862625,21.45873],[39.862625,21.458613],[39.862616,21.458496],[39.862616,21.458379],[39.862625,21.458366],[39.862766,21.458366],[39.862907,21.458329],[39.863048,21.458329],[39.863121,21.458379]]],[[[39.859699,21.456387],[39.859699,21.456504],[39.859804,21.456544],[39.859945,21.456544],[39.860072,21.456621],[39.860072,21.456738],[39.860072,21.456855],[39.860086,21.456878],[39.860227,21.456878],[39.860268,21.456973],[39.860268,21.45709],[39.860342,21.457207],[39.860342,21.457324],[39.860342,21.457441],[39.860368,21.457458],[39.860509,21.457458],[39.86065,21.457554],[39.860791,21.457554],[39.860801,21.457559],[39.860801,21.457676],[39.860932,21.457733],[39.861073,21.457733],[39.861214,21.457761],[39.861356,21.457761],[39.861497,21.457784],[39.861638,21.457784],[39.861669,21.457793],[39.861669,21.45791],[39.861638,21.457924],[39.861497,21.457924],[39.861356,21.457967],[39.861214,21.457967],[39.861129,21.458027],[39.861129,21.458145],[39.861129,21.458262],[39.861073,21.458284],[39.860932,21.458284],[39.860791,21.458356],[39.86065,21.458356],[39.860588,21.458379],[39.860588,21.458496],[39.860509,21.458528],[39.860368,21.458528],[39.860227,21.458564],[39.860086,21.458564],[39.859945,21.45856],[39.859804,21.45856],[39.859663,21.458525],[39.859522,21.458525],[39.859403,21.458496],[39.859403,21.458379],[39.859381,21.458372],[39.85924,21.458372],[39.859099,21.45829],[39.859072,21.458262],[39.859072,21.458145],[39.859072,21.458027],[39.858986,21.45791],[39.858986,21.457793],[39.858957,21.457747],[39.858816,21.457747],[39.858766,21.457676],[39.858766,21.457559],[39.85869,21.457441],[39.85869,21.457324],[39.85869,21.457207],[39.858675,21.457165],[39.858534,21.457165],[39.858504,21.45709],[39.858504,21.456973],[39.858531,21.456855],[39.858531,21.456738],[39.858531,21.456621],[39.858534,21.45662],[39.858675,21.45662],[39.858816,21.456548],[39.858957,21.456548],[39.859022,21.456504],[39.859022,21.456387],[39.859099,21.456351],[39.85924,21.456333],[39.859381,21.456333],[39.859522,21.456374],[39.859663,21.456374],[39.859699,21.456387]]]]}},{"type":"Feature","properties":{"elev_absolute":551.5,"min_height":200,"height":225},"geometry":{"type":"MultiPolygon","coordinates":[[[[39.859403,21.456621],[39.859403,21.456738],[39.859403,21.456855],[39.859522,21.456935],[39.859663,21.456935],[39.859718,21.456973],[39.859718,21.45709],[39.859804,21.457135],[39.859945,21.457135],[39.860016,21.457207],[39.860016,21.457324],[39.860016,21.457441],[39.860086,21.457473],[39.860227,21.457473],[39.860364,21.457559],[39.860364,21.457676],[39.860368,21.457679],[39.860509,21.457679],[39.860622,21.457793],[39.860622,21.45791],[39.860568,21.458027],[39.860568,21.458145],[39.860568,21.458262],[39.860509,21.458288],[39.860368,21.458288],[39.860227,21.45833],[39.860086,21.45833],[39.859945,21.458329],[39.859804,21.458329],[39.859663,21.458284],[39.859522,21.458284],[39.859475,21.458262],[39.859475,21.458145],[39.859475,21.458027],[39.859381,21.457922],[39.85924,21.457922],[39.859228,21.45791],[39.859228,21.457793],[39.859123,21.457676],[39.859123,21.457559],[39.859099,21.457526],[39.859051,21.457441],[39.859051,21.457324],[39.859051,21.457207],[39.859035,21.45709],[39.859035,21.456973],[39.859099,21.456887],[39.859189,21.456855],[39.859189,21.456738],[39.859189,21.456621],[39.85924,21.456612],[39.859381,21.456612],[39.859403,21.456621]]]]}},{"type":"Feature","properties":{"elev_absolute":576.5,"min_height":225,"height":233.5},"geometry":{"type":"MultiPolygon","coordinates":[[[[39.860008,21.457559],[39.860008,21.457676],[39.860086,21.457709],[39.860227,21.457709],[39.860306,21.457793],[39.860306,21.45791],[39.860227,21.457961],[39.860086,21.457961],[39.859945,21.457954],[39.859804,21.457954],[39.859754,21.45791],[39.859754,21.457793],[39.859766,21.457676],[39.859766,21.457559],[39.859804,21.457543],[39.859945,21.457543],[39.860008,21.457559]]]]}}]}